Id,Name,Street Address,Suburb,Region,Store Type,CanPurchase,CanTopUp,CanRegisterCard,CanRefund,CanAlterExpire,AcceptsCash,AcceptsEFTPOS,AcceptsCreditCard,SellsGoCardAdult,SellsGoCardChild,SellsGoCardSenior,SellsGoCardConcession,SellsTouristPack,SellsSEQCard,unused1,unused2,Created,Modified,Active,Notes,Lat,Lng
1,Albany Creek News,"Shop 13, 700 Albany Creek Road",Albany Creek,Brisbane North,retailer,1,1,0,0,1,1,1,1,1,1,1,1,0,0,0,0,2009/09/11 12:18,2010/09/23 11:03,1, ,-27.3453,152.97
2,Albion station,49 Albion Road,Albion,Brisbane North,station,1,1,1,1,1,1,1,1,1,1,1,1,0,0,0,0,2009/09/11 12:18,2010/09/23 11:04,1, ,-27.4292,153.04
3,7-Eleven Algester,169 Algester Road,Algester,Brisbane South,retailer,1,1,0,0,1,1,1,1,1,1,1,1,0,0,0,0,2009/09/11 12:18,2012/01/16 15:25,1, ,-27.6125,153.039
4,Ashgrove News,"Ashgrove Shopping Centre, 16 Ashgrove Avenue",Ashgrove,Brisbane North,retailer,1,1,0,0,1,1,1,1,1,1,1,1,0,0,0,0,2009/09/11 12:18,2010/09/23 11:26,1, ,-27.4447,152.994
5,7-Eleven Ashmore,400 Nerang Road,Ashmore,Gold Coast,retailer,1,1,0,0,1,1,1,1,1,1,1,1,0,0,0,0,2009/09/11 12:18,2012/09/25 11:31,1, ,-27.9788,153.38
6,7-Eleven Albany Creek,70 Albany Creek Road,Albany Creek,Brisbane North,retailer,1,1,0,0,1,1,1,1,1,1,1,1,0,0,0,0,2009/09/11 12:18,2012/09/25 11:31,1, ,-27.364,153.013
7,Nextra Day and Night News,1374 Gympie Road,Aspley,Brisbane North,retailer,1,1,0,0,1,1,1,1,1,1,1,1,0,0,0,0,2009/09/11 12:18,2010/09/23 11:28,1, ,-27.3626,153.017
8,7-Eleven Beenleigh,2-6 City Road,Beenleigh,Southern,retailer,1,1,0,0,1,1,1,1,1,1,1,1,0,0,0,0,2009/09/11 12:18,2012/01/16 15:17,1, ,-27.7078,153.204
9,Beenleigh station,Alamein Street,Beenleigh,Southern,station,1,1,1,1,1,1,1,1,1,1,1,1,0,0,0,0,2009/09/11 12:18,2010/09/23 11:33,1, ,-27.7174,153.204
12,7-Eleven Birkdale,"Bailey Road, corner Birkdale Road",Birkdale,Eastern,retailer,1,1,0,0,1,1,1,1,1,1,1,1,0,0,0,0,2009/09/11 12:18,2012/01/16 15:22,1, ,-27.5095,153.206
13,Booval station,South Station Road,Booval,Western,station,1,1,1,1,1,1,1,1,1,1,1,1,0,0,0,0,2009/09/11 12:18,2010/09/23 11:43,1, ,-27.6093,152.79
14,7-Eleven Boronia Heights,"Coronation Road, corner Middle Road",Boronia Heights,Southern,retailer,1,1,0,0,1,1,1,1,1,1,1,1,0,0,0,0,2009/09/11 12:18,2012/01/16 15:20,1, ,-27.6752,153.029
15,Bowen Hills station,Abbotsford Road,Bowen Hills,Brisbane Central,station,1,1,1,1,1,1,1,1,1,1,1,1,0,0,0,0,2009/09/11 12:18,2010/09/23 11:44,1, ,-27.4456,153.038
16,7-Eleven Bracken Ridge,"Telegraph Road, corner Norris Road",Bracken Ridge,Brisbane North,retailer,1,1,0,0,1,1,1,1,1,1,1,1,0,0,0,0,2009/09/11 12:18,2012/01/16 15:22,1, ,-27.3307,153.026
17,7-Eleven Brassall,21 Hunter Street,Brassall,Western,retailer,1,1,0,0,1,1,1,1,1,1,1,1,0,0,0,0,2009/09/11 12:18,2012/01/16 15:21,1, ,-27.5938,152.746
18,7-Eleven Bray Park,"Samsonvale Road, corner Old North Road",Bray Park (Moreton Bay Regional),Northern,retailer,1,1,0,0,1,1,1,1,1,1,1,1,0,0,0,0,2009/09/11 12:18,2012/09/25 11:40,1, ,-27.2915,152.953
19,Bray Park station,Railway Avenue,Bray Park (Moreton Bay Regional),Northern,station,1,1,1,1,1,1,1,1,1,1,1,1,0,0,0,0,2009/09/11 12:18,2012/08/20 17:02,1, ,-27.2993,152.986
20,7-Eleven 120 Edward Street Brisbane,120 Edward Street,Brisbane (city),Brisbane Central,retailer,1,1,0,0,1,1,1,1,1,1,1,1,0,0,0,0,2009/09/11 12:18,2012/01/23 14:11,1, ,-27.4702,153.028
21,7-Eleven 136 Queen Street Brisbane,136 Queen Street (Cnr Albert and Burnett Lane),Brisbane (city),Brisbane Central,retailer,1,1,0,0,1,1,1,1,1,1,1,1,0,0,0,0,2009/09/11 12:18,2013/04/12 10:29,1,This store will be temporarily closed from April 14th 2013 to April 18th 2013.  We apologise for any inconvenience.,-27.4693,153.025
22,7-Eleven 153 Elizabeth Street Brisbane,153 Elizabeth Street,Brisbane (city),Brisbane Central,retailer,1,1,0,0,1,1,1,1,1,1,1,1,0,0,0,0,2009/09/11 12:18,2012/04/13 14:09,2, ,-27.4693,153.027
23,7-Eleven 155 Edward Street Brisbane,155 Edward Street,Brisbane (city),Brisbane Central,retailer,1,1,0,0,1,1,1,1,1,1,1,1,0,0,0,0,2009/09/11 12:18,2012/04/13 14:42,2, ,-27.4693,153.028
24,7-Eleven 174 Adelaide Street Brisbane,174 Adelaide Street,Brisbane (city),Brisbane Central,retailer,1,1,0,0,1,1,1,1,1,1,1,1,0,0,0,0,2009/09/11 12:18,2012/01/23 14:09,1, ,-27.4675,153.026
25,7-Eleven 189 George Street Brisbane,189 George Street,Brisbane (city),Brisbane Central,retailer,1,1,0,0,1,1,1,1,1,1,1,1,0,0,0,0,2009/09/11 12:18,2012/01/23 14:08,1, ,-27.4714,153.024
26,7-Eleven 231 George Street Brisbane,231 George Street,Brisbane (city),Brisbane Central,retailer,1,1,0,0,1,1,1,1,1,1,1,1,0,0,0,0,2009/09/11 12:18,2012/01/16 15:42,1, ,-27.4706,153.023
27,7-Eleven 243 Edward Street Brisbane,243 Edward Street,Brisbane (city),Brisbane Central,retailer,1,1,0,0,1,1,1,1,1,1,1,1,0,0,0,0,2009/09/11 12:18,2012/01/16 15:39,1, ,-27.4675,153.027
28,7-Eleven 324 Queen Street Brisbane,324 Queen Street,Brisbane (city),Brisbane Central,retailer,1,1,0,0,1,1,1,1,1,1,1,1,0,0,0,0,2009/09/11 12:18,2012/01/16 15:39,1, ,-27.4668,153.029
29,7-Eleven 333 George Street Brisbane,corner George and Turbot Streets,Brisbane (city),Brisbane Central,retailer,1,1,0,0,1,1,1,1,1,1,1,1,0,0,0,0,2009/09/11 12:18,2012/01/16 15:37,1, ,-27.4687,153.022
30,7-Eleven Aurora Brisbane,"420 Queen Street, corner Wharf Street",Brisbane (city),Brisbane Central,retailer,1,1,0,0,1,1,1,1,1,1,1,1,0,0,0,0,2009/09/11 12:18,2012/01/16 15:35,1, ,-27.4652,153.03
31,7-Eleven Myer Centre Brisbane,91 Queen Street,Brisbane (city),Brisbane Central,retailer,1,1,0,0,1,1,1,1,1,1,1,1,0,0,0,0,2009/09/11 12:18,2012/01/16 15:34,1, ,-27.4703,153.025
32,7-Eleven Albert Street Brisbane,97 Albert Street,Brisbane (city),Brisbane Central,retailer,1,1,0,0,1,1,1,1,1,1,1,1,0,0,0,0,2009/09/11 12:18,2012/01/16 15:19,1, ,-27.4715,153.027
33,7-Eleven Creek Street Brisbane,99 Creek Street,Brisbane (city),Brisbane Central,retailer,1,1,0,0,1,1,1,1,1,1,1,1,0,0,0,0,2009/09/11 12:18,2012/01/16 15:18,1, ,-27.4662,153.028
34,7-Eleven Transit Centre,458 George Street,Brisbane (city),Brisbane Central,retailer,1,1,0,0,1,1,1,1,1,1,1,1,0,0,0,0,2009/09/11 12:18,2013/08/07 16:22,1, ,-27.467361,153.019897
35,Albert Street News,80 Albert Street,Brisbane (city),Brisbane Central,retailer,1,1,0,0,1,1,1,1,1,1,1,1,0,0,0,0,2009/09/11 12:18,2010/09/23 11:57,1, ,-27.4721,153.028
36,Central station,Ann Street,Brisbane (city),Brisbane Central,station,1,1,1,1,1,1,1,1,1,1,1,1,0,1,0,0,2009/09/11 12:18,2012/11/07 10:53,1, ,-27.4658,153.026
37,City Mall News,Queen Street Kiosk,Brisbane (city),Brisbane Central,retailer,1,1,1,1,1,1,1,1,1,1,1,1,1,1,0,0,2009/09/11 12:18,2012/11/07 10:29,1, ,-27.4685,153.027
38,City News,10 Eagle Street,Brisbane (city),Brisbane Central,retailer,1,1,0,0,1,1,1,1,1,1,1,1,0,0,0,0,2009/09/11 12:18,2010/09/23 11:59,1, ,-27.4694,153.03
39,Civic Arcade News,Shop 1/65 Adelaide Street,Brisbane (city),Brisbane Central,retailer,1,1,0,0,1,1,1,1,1,1,1,1,1,0,0,0,2009/09/11 12:18,2012/03/05 12:49,2, ,-27.4695,153.024
40,Eagle Street News,"Ground Floor, 70 Eagle Street",Brisbane (city),Brisbane Central,retailer,1,1,1,1,1,1,1,1,1,1,1,1,1,1,0,0,2009/09/11 12:18,2012/11/07 10:29,1, ,-27.4671,153.03
41,Exchange Casket Agency,360 Queen Street,Brisbane (city),Brisbane Central,retailer,1,1,0,0,1,1,1,1,1,1,1,1,1,0,0,0,2009/09/11 12:18,2012/01/17 16:44,1,,-27.4664,153.029
42,George Street News,370 George Street,Brisbane (city),Brisbane Central,retailer,1,1,0,0,1,1,1,1,1,1,1,1,1,0,0,0,2009/09/11 12:18,2012/01/17 16:45,1, ,-27.4689,153.021
43,GPO News,"Shop 1, 40 Creek Street",Brisbane (city),Brisbane Central,retailer,1,1,1,1,1,1,1,1,1,1,1,1,1,1,0,0,2009/09/11 12:18,2012/11/07 10:30,1, ,-27.4671,153.029
44,Lucky Golden Goose Newsagency,140 Adelaide Street,Brisbane (city),Brisbane Central,retailer,1,1,0,0,1,1,1,1,1,1,1,1,1,0,0,0,2009/09/11 12:18,2012/08/10 14:58,2, ,-27.4679,153.026
46,Mary Street News,"Shop 4, 100 Edward Street ",Brisbane (city),Brisbane Central,retailer,1,1,0,0,1,1,1,1,1,1,1,1,1,0,0,0,2009/11/19 14:57,2012/01/17 16:46,1, ,-27.4704,153.029
47,Midas News and Casket,363 Adelaide Street,Brisbane (city),Brisbane Central,retailer,1,1,0,0,1,1,1,1,1,1,1,1,0,0,0,0,2009/09/11 12:18,2010/09/23 12:04,1, ,-27.4649,153.03
48,Mineral House News,41 George Street,Brisbane (city),Brisbane Central,retailer,1,1,0,0,1,1,1,1,1,1,1,1,1,0,0,0,2009/09/11 12:18,2012/01/17 16:42,1, ,-27.4738,153.026
49,Post Office Square News,280 Queen Street,Brisbane (city),Brisbane Central,retailer,1,1,1,1,1,1,1,1,1,1,1,1,1,1,0,0,2009/09/11 12:18,2012/11/07 10:30,1, ,-27.468,153.028
50,QUT Student Guild,"2 George Street, Queensland University of Technology, Gardens Point campus (L block)",Brisbane (city),Brisbane North,retailer,1,1,0,0,1,1,1,1,1,1,1,1,0,0,0,0,2009/09/11 12:18,2012/11/12 08:40,1,Site closed for relocation 16 November 2012 - 7 January 2013 ,-27.4757,153.027
51,Rankins on the Mall,Queen Street,Brisbane (city),Brisbane Central,retailer,1,1,1,1,1,1,1,1,1,1,1,1,1,1,0,0,2009/09/11 12:18,2012/11/07 10:31,1, ,-27.4697,153.025
52,Roma Street station,Roma Street,Brisbane (city),Brisbane Central,station,1,1,1,1,1,1,1,1,1,1,1,1,0,1,0,0,2009/09/11 12:18,2012/11/07 10:54,1, ,-27.4652,153.019
53,Macarthur News,"259 Queen Street, Macarthur Central Building",Brisbane (city),Brisbane Central,retailer,1,1,0,0,1,1,1,1,1,1,1,1,1,0,0,0,2009/09/11 12:18,2012/11/19 08:40,1,,-27.4683,153.027
54,Supanews Brisbane Square,"Brisbane Square, George Street",Brisbane (city),Brisbane Central,retailer,1,1,0,0,1,1,1,1,1,1,1,1,1,0,0,0,2009/09/11 12:18,2012/02/16 14:07,1, ,-27.4709,153.023
55,Supanews Broadway,"Broadway on the Mall, Queen Street ",Brisbane (city),Brisbane Central,retailer,1,1,1,1,1,1,1,1,1,1,1,1,1,0,0,0,2009/09/11 12:18,2013/07/15 14:13,2, ,-27.4686,153.026
56,Supanews Central Station,"Central Concourse, Central Station, Ann Street ",Brisbane (city),Brisbane Central,retailer,1,1,1,1,1,1,1,1,1,1,1,1,1,1,0,0,2009/09/11 12:18,2012/11/07 10:31,1, ,-27.466,153.026
57,Supanews Myer Centre Level A,"Queen Street Mall, Myer Centre (level A)",Brisbane (city),Brisbane Central,retailer,1,1,1,1,1,1,1,1,1,1,1,1,1,1,0,0,2009/09/11 12:18,2012/11/07 10:33,1, ,-27.4711,153.025
58,Supanews Myer Centre Level E,"Queen Street Mall, Myer Centre (level E)",Brisbane (city),Brisbane Central,retailer,1,1,0,0,1,1,1,1,1,1,1,1,1,0,0,0,2009/09/11 12:18,2012/02/16 14:15,1, ,-27.4709,153.024
59,Supanews Xpress Broadway,"Broadway on the Mall, Adelaide street and Queen Street",Brisbane (city),Brisbane Central,retailer,1,1,1,1,1,1,1,1,1,1,1,1,1,0,0,0,2009/09/11 12:18,2012/07/02 15:31,2, ,-27.4688,153.025
60,Supanews Xpress Central Station Platform 1/2,"Central station (platform 1/2), Ann Street",Brisbane (city),Brisbane Central,retailer,1,1,0,0,1,1,1,1,1,1,1,1,1,0,0,0,2009/09/11 12:18,2012/02/16 14:17,1, ,-27.4661,153.026
61,Supanews Xpress Central Station Platform 3/4,"Central station (platform 3/4), Ann Street",Brisbane (city),Brisbane Central,retailer,1,1,0,0,1,1,1,1,1,1,1,1,1,0,0,0,2009/09/11 12:18,2012/02/16 14:17,1, ,-27.4661,153.026
62,Supanews Xpress Central Station Platform 5/6,"Central station (platform 5/6), Ann Street ",Brisbane (city),Brisbane Central,retailer,1,1,0,0,1,1,1,1,1,1,1,1,1,0,0,0,2009/09/11 12:18,2012/02/16 14:17,1, ,-27.4661,153.026
63,Supanews Xpress Myer Centre Level E,"Queen Street Mall, Myer Centre (level E)",Brisbane (city),Brisbane Central,retailer,1,1,0,0,1,1,1,1,1,1,1,1,0,0,0,0,2009/09/11 12:18,2012/02/16 14:15,1, ,-27.4712,153.024
64,DO NOT PUBLISH Supanews Xpress,"Queen Street Mall, Myer Centre (level Q)",Brisbane (city),Brisbane Central,retailer,1,1,0,0,1,1,1,1,1,1,1,1,0,0,0,0,2009/09/11 12:18,2010/01/27 07:54,0, ,NULL,NULL
65,Transport Information Centre,"King George Square bus station, Ann Street",Brisbane (city),Brisbane Central,retailer,1,1,0,0,1,0,1,1,1,1,1,1,1,0,0,0,2009/09/11 12:18,2012/07/02 12:49,2, ,-27.4672,153.023
66,White Heather News,131 George Street,Brisbane (city),Brisbane Central,retailer,1,1,1,1,1,1,1,1,1,1,1,1,0,0,0,0,2009/09/11 12:18,2012/04/13 14:45,2, ,-27.4723,153.025
68,7-Eleven Phoenician Broadbeach,"The Phoenician, 90 Surf Parade",Broadbeach,Gold Coast,retailer,1,1,0,0,1,1,1,1,1,1,1,1,0,0,0,0,2009/09/11 12:18,2012/10/08 08:47,1,Store closed for refurbishments 8-16 October 2012,-28.029,153.431
69,7-Eleven Browns Plains,264-266 Browns Plains Road,Browns Plains,Brisbane South,retailer,1,1,0,0,1,1,1,1,1,1,1,1,0,0,0,0,2009/09/11 12:18,2012/01/23 14:12,1, ,-27.6639,153.063
70,Balmoral News & Casket,134 Oxford Street,Bulimba,Brisbane South,retailer,1,1,0,0,1,1,1,1,1,1,1,1,0,0,0,0,2009/09/11 12:18,2012/09/13 14:52,2, ,-27.451,153.058
71,Princess Alexandra Area News & Casket,250 Ipswich Road,Buranda,Brisbane South,retailer,1,1,0,0,1,1,1,1,1,1,1,1,1,0,0,0,2009/09/11 12:18,2012/01/17 16:51,1, ,-27.498,153.035
72,7-Eleven Burleigh Heads,"Gold Coast Highway, corner Fifth Avenue",Burleigh Heads,Gold Coast,retailer,1,1,0,0,1,1,1,1,1,1,1,1,0,0,0,0,2009/09/11 12:18,2012/01/23 14:13,1, ,-28.0785,153.446
73,Burpengary station,Burpengary Road,Burpengary,Northern,station,1,1,1,1,1,1,1,1,1,1,1,1,0,0,0,0,2009/09/11 12:18,2010/09/30 10:57,1, ,-27.1624,152.957
74,Caboolture station,Matthew Terrace,Caboolture,Northern,station,1,1,1,1,1,1,1,1,1,1,1,1,0,0,0,0,2009/09/11 12:18,2010/09/30 10:59,1, ,-27.0835,152.954
75,NewsXpress Caboolture,"Matthew Terrace, corner James Street",Caboolture,Northern,retailer,1,1,1,1,1,1,1,1,1,1,1,1,1,1,0,0,2009/09/11 12:18,2012/11/07 10:50,1, ,-27.0833,152.953
76,Caloundra Transit Centre,"Bus interchange, 23 Cooma Terrace",Caloundra,Sunshine Coast,retailer,1,1,1,1,1,1,1,1,1,1,1,1,0,0,0,0,2009/09/11 12:18,2012/03/15 09:46,2, ,-26.8055,153.134
77,Nextra Cannon Hill,"K-Mart Plaza, Creek Road",Cannon Hill,Brisbane East,retailer,1,1,0,0,1,1,1,1,1,1,1,1,0,0,0,0,2009/09/11 12:18,2012/02/16 14:05,1, ,-27.4711,153.098
78,NewsExtra Capalaba,"Shop 77, Capalaba Central Shopping Centre, Moreton Bay Road",Capalaba,Eastern,retailer,1,0,0,0,0,1,1,1,1,1,1,1,0,0,0,0,2009/09/11 12:18,2011/07/13 10:50,1, ,-27.5231,153.194
79,7-Eleven Carina,1505 Creek Road,Carina,Brisbane East,retailer,1,1,0,0,1,1,1,1,1,1,1,1,0,0,0,0,2009/09/11 12:18,2012/01/23 14:13,1, ,-27.4877,153.1
80,Nextra Carindale News,"Upper Level Westfield Carindale, Creek Road",Carindale,Brisbane East,retailer,1,1,1,1,1,1,1,1,1,1,1,1,1,1,0,0,2009/09/11 12:18,2012/11/07 10:36,1, ,-27.5025,153.102
81,Nextra Chermside,"Westfield Shopping Centre, Gympie Road",Chermside,Brisbane North,retailer,1,1,1,1,1,1,1,1,1,1,1,1,1,1,0,0,2009/09/11 12:18,2012/11/07 10:37,1, ,-27.3854,153.033
82,Bloomfield Street News,115 - 117 Bloomfield Street,Cleveland,Eastern,retailer,1,1,1,1,1,1,1,1,1,1,1,1,1,1,0,0,2009/09/11 12:18,2012/11/07 10:50,1, ,-27.5275,153.267
83,Cleveland station,Shore Street,Cleveland,Eastern,station,1,1,1,1,1,1,1,1,1,1,1,1,0,0,0,0,2009/09/11 12:18,2010/09/30 11:21,1, ,-27.5242,153.266
85,7-Eleven Clontarf,9 Elizabeth Avenue,Clontarf (Moreton Bay Regional),Northern,retailer,1,1,0,0,1,1,1,1,1,1,1,1,0,0,0,0,2009/09/11 12:18,2012/08/20 17:39,1, ,-27.2609,153.08
86,7-Eleven Coolangatta,18 Griffith Street,Coolangatta (Gold Coast City),Gold Coast,retailer,1,1,0,0,1,1,1,1,1,1,1,1,0,0,0,0,2009/09/11 12:18,2012/09/13 09:23,1,,-28.1685,153.536
87,7-Eleven Coopers Plains,129 Orange Grove Road,Coopers Plains,Brisbane South,retailer,1,1,0,0,1,1,1,1,1,1,1,1,0,0,0,0,2009/09/11 12:18,2012/01/23 14:14,1, ,-27.5639,153.04
88,Cavendish Road News,157 Cavendish Road,Coorparoo,Brisbane East,retailer,1,1,0,0,1,1,1,1,1,1,1,1,0,0,0,0,2009/09/11 12:18,2010/09/30 11:29,1, ,-27.4936,153.059
89,Corinda station,"Watt Street, corner Ruthven Street",Corinda,Brisbane South,station,1,1,1,1,1,1,1,1,1,1,1,1,0,0,0,0,2009/09/11 12:18,2010/09/30 11:30,1, ,-27.5396,152.98
90,Darra station,Darra Station Road,Darra,Brisbane West,station,1,1,1,1,1,1,1,1,1,1,1,1,0,0,0,0,2009/09/11 12:18,2010/09/30 11:33,1, ,-27.5659,152.952
91,7-Eleven Deagon,11 Depot Road,Deagon,Brisbane North,retailer,1,1,0,0,1,1,1,1,1,1,1,1,0,0,0,0,2009/09/11 12:18,2012/01/23 14:15,1, ,-27.3284,153.054
92,7-Eleven Dinmore,29-31 Brisbane Road,Dinmore,Western,retailer,1,1,0,0,1,1,1,1,1,1,1,1,0,0,0,0,2009/09/11 12:18,2012/01/23 14:15,1, ,-27.5979,152.832
93,7-Eleven Durack,14 Rosemary Street,Durack,Brisbane South,retailer,1,1,0,0,1,1,1,1,1,1,1,1,0,0,0,0,2009/09/11 12:18,2012/01/23 14:16,1, ,-27.5792,152.975
94,Eagle Junction station,Junction Road,Eagle Junction,Brisbane North,station,1,1,1,1,1,1,1,1,1,1,1,1,0,0,0,0,2009/09/11 12:18,2010/09/30 11:38,1, ,-27.4151,153.05
95,7-Eleven East Beenleigh,79 Logan River Road,East Beenleigh,Southern,retailer,1,1,0,0,1,1,1,1,1,1,1,1,0,0,0,0,2009/09/11 12:18,2012/01/23 14:16,1, ,-27.7134,153.185
96,7-Eleven East Brisbane,508 Vulture Street,East Brisbane,Brisbane East,retailer,1,1,0,0,1,1,1,1,1,1,1,1,0,0,0,0,2009/09/11 12:18,2012/09/25 11:41,1, ,-27.4847,153.039
99,7-Eleven Fairfield Gardens,180 Fairfield Road,Fairfield Gardens,Brisbane South,retailer,1,1,0,0,1,1,1,1,1,1,1,1,0,0,0,0,2009/09/11 12:18,2012/01/23 14:17,1,,-27.509,153.026
100,Ferny Grove station,Conavalla Street,Ferny Grove,Brisbane North,station,1,1,1,1,1,1,1,1,1,1,1,1,0,0,0,0,2009/09/11 12:18,2010/09/30 11:56,1, ,-27.4013,152.935
101,Forest Lake Village News,"Forest Lake Village Shopping Centre, Forest Lake Boulevard",Forest Lake,Brisbane West,retailer,1,1,0,0,1,1,1,1,1,1,1,1,0,0,0,0,2009/09/11 12:18,2010/09/30 11:56,1, ,-27.6255,152.968
102,7-Eleven Fortitude Valley,376 Brunswick Street,Fortitude Valley,Brisbane Central,retailer,1,1,0,0,1,1,1,1,1,1,1,1,0,0,0,0,2009/09/11 12:18,2012/01/23 14:17,1, ,-27.4589,153.036
103,Fortitude Valley station,Brunswick Street,Fortitude Valley,Brisbane Central,station,1,1,1,1,1,1,1,1,1,1,1,1,0,1,0,0,2009/09/11 12:18,2012/11/07 10:53,1, ,-27.4567,153.033
104,7-Eleven Graceville,246 Oxley Road,Graceville,Brisbane South,retailer,1,1,0,0,1,1,1,1,1,1,1,1,0,0,0,0,2009/09/11 12:18,2012/01/23 14:18,1, ,-27.5219,152.98
105,7-Eleven Grange,"Days Road, corner Kedron Brook Road",Grange,Brisbane North,retailer,1,1,0,0,1,1,1,1,1,1,1,1,0,0,0,0,2009/09/11 12:18,2012/01/23 14:18,1, ,-27.4266,153.019
106,Greenslopes Newsagency,"Shop 19, Greenslopes Mall, 700 Logan Road",Greenslopes,Brisbane South,retailer,1,1,0,0,1,1,1,1,1,1,1,1,0,0,0,0,2009/09/11 12:18,2012/09/25 11:41,1, ,-27.5121,153.054
107,7-Eleven Hamilton,"Kingsford Smith Drive, corner and Racecourse Road",Hamilton,Brisbane North,retailer,1,1,0,0,1,1,1,1,1,1,1,1,0,0,0,0,2009/09/11 12:18,2012/01/23 14:18,1, ,-27.441,153.046
108,Riding Road News,63 Riding Road,Hawthorne,Brisbane East,retailer,1,1,0,0,1,1,1,1,1,1,1,1,0,0,0,0,2009/09/11 12:18,2010/09/30 12:19,1, ,-27.4668,153.065
109,Helensvale station,Town Centre Drive,Helensvale,Gold Coast,station,1,1,1,1,1,1,1,1,1,1,1,1,0,1,0,0,2009/09/11 12:18,2012/11/07 10:56,1, ,-27.9258,153.339
110,Supanews Helensvale,"Westfield Shopping Centre, Gold Coast Highway, corner Town Centre Drive",Helensvale,Gold Coast,retailer,1,1,1,1,1,1,1,1,1,1,1,1,0,0,0,0,2009/09/11 12:18,2012/10/03 12:12,2, ,-27.9226,153.339
111,Supanews Xpress Helensvale,"Westfield Shopping Centre, Gold Coast Highway, corner Town Centre Drive",Helensvale,Gold Coast,retailer,1,1,0,0,1,1,1,1,1,1,1,1,0,0,0,0,2009/09/11 12:18,2013/05/27 10:05,1, ,-27.9272,153.336
112,Groceries at Pinkeys,17 Zillman Road,Hendra,Brisbane North,retailer,1,1,0,0,1,1,1,1,1,1,1,1,0,0,0,0,2009/09/11 12:18,2013/08/05 16:35,2, ,-27.4223,153.064
113,7-Eleven Heritage Park,118 Waller Road,Heritage Park,Southern,retailer,1,1,0,0,1,1,1,1,1,1,1,1,0,0,0,0,2009/09/11 12:18,2012/01/23 14:19,1, ,-27.6734,153.053
114,Nextra General Hospital News,"Ned Hanlon Building, Royal Brisbane Hospital",Herston,Brisbane North,retailer,1,1,0,0,1,1,1,1,1,1,1,1,1,0,0,0,2009/09/11 12:18,2012/09/25 11:42,1, ,-27.4475,153.029
115,7-Eleven Hope Island,341 Southport-Oxenford Road,Hope Island,Gold Coast,retailer,1,1,0,0,1,1,1,1,1,1,1,1,0,0,0,0,2009/09/11 12:18,2012/01/23 14:19,1, ,-27.8783,153.338
116,Inala Plaza News,"Shop 4, Inala Civic Centre, Corsair Avenue",Inala,Brisbane West,retailer,1,1,0,0,1,1,1,1,1,1,1,1,0,0,0,0,2009/09/11 12:18,2010/09/30 12:26,1, ,-27.599,152.975
117,7-Eleven Indooroopilly,14 Station Road,Indooroopilly,Brisbane West,retailer,1,1,0,0,1,1,1,1,1,1,1,1,0,0,0,0,2009/09/11 12:18,2012/01/23 14:21,1, ,-27.5026,152.975
118,Metro News Indooroopilly,"Level 3, Indooroopilly Shoppingtown",Indooroopilly,Brisbane West,retailer,1,1,1,1,1,1,1,1,1,1,1,1,1,1,0,0,2009/09/11 12:18,2012/11/07 10:37,1, ,-27.4976,152.974
119,Ipswich station,Bell Street,Ipswich,Western,station,1,1,1,1,1,1,1,1,1,1,1,1,0,1,0,0,2009/09/11 12:18,2012/11/07 10:56,1, ,-27.6129,152.761
120,7-Eleven Jindalee,721 Seventeen Mile Rock Road,Jindalee,Brisbane West,retailer,1,1,0,0,1,1,1,1,1,1,1,1,0,0,0,0,2009/09/11 12:18,2012/01/23 14:45,1,,-27.5373,152.95
121,7-Eleven Kedron,Cnr Gympie Road and Nundah Street,Kedron,Brisbane North,retailer,1,1,0,0,1,1,1,1,1,1,1,1,0,0,0,0,2009/09/11 12:18,2013/07/24 11:12,1, ,-27.4008,153.032
122,Kelvin Grove News & Post Office,"Victoria Park Road, Queensland University of Technology (C block)",Kelvin Grove,Brisbane North,retailer,1,1,0,0,1,1,1,0,1,1,1,1,0,0,0,0,2009/09/11 12:18,2010/10/05 11:13,1, ,-27.4518,153.015
123,7-Eleven Kenmore,2058-2062 Moggill Road,Kenmore,Brisbane West,retailer,1,1,0,0,1,1,1,1,1,1,1,1,0,0,0,0,2009/09/11 12:18,2012/01/23 14:47,1, ,-27.5102,152.938
124,Supanews Keperra,"Settlement Road, Great Western Super Centre",Keperra,Brisbane North,retailer,1,1,0,0,1,1,1,1,1,1,1,1,0,0,0,0,2009/09/11 12:18,2012/02/16 14:06,1, ,-27.4151,152.949
125,7-Eleven Kingston,"Kingston Road, corner Wanda Street",Kingston,Southern,retailer,1,1,0,0,1,1,1,1,1,1,1,1,0,0,0,0,2009/09/11 12:18,2012/01/23 14:47,1, ,-27.6449,153.118
126,7-Eleven Kirra,"Kirra Beach Plaza, Musgrave Road, corner Douglas Road",Kirra,Gold Coast,retailer,1,1,0,0,1,1,1,1,1,1,1,1,0,0,0,0,2009/09/11 12:18,2012/01/23 14:50,1, ,-28.1678,153.528
127,7-Eleven Labrador,78-84 Frank Street,Labrador,Gold Coast,retailer,1,1,0,0,1,1,1,1,1,1,1,1,0,0,0,0,2009/09/11 12:18,2012/01/23 14:50,1, ,-27.9487,153.408
128,7-Eleven Logan City,120 Wembley Road,Logan City,Southern,retailer,1,1,0,0,1,1,1,1,1,1,1,1,0,0,0,0,2009/09/11 12:18,2012/01/23 14:50,1, ,-27.6413,153.107
129,7-Eleven Lutwyche,446 Lutwyche Road,Lutwyche,Brisbane North,retailer,1,1,0,0,1,1,1,1,1,1,1,1,0,0,0,0,2009/09/11 12:18,2012/01/23 14:50,1, ,-27.4247,153.033
130,7-Eleven Mackenzie,902 Mt Gravatt-Capalaba Road,Mackenzie (Brisbane City),Eastern,retailer,1,1,0,0,1,1,1,1,1,1,1,1,0,0,0,0,2009/09/11 12:18,2012/08/20 17:48,1, ,-27.5459,153.123
131,Supanews North Lakes,"Shop 1085, Westfield Shopping Centre, Anzac Avenue",North Lakes,Northern,retailer,1,1,1,1,1,1,1,1,1,1,1,1,1,1,0,0,2009/09/11 12:18,2012/11/07 10:52,1, ,-27.2398,153.02
133,Manly station,Ernest Street,Manly,Brisbane East,station,1,1,1,1,1,1,1,1,1,1,1,1,0,0,0,0,2009/09/11 12:18,2010/10/05 11:33,1, ,-27.457,153.18
134,7-Eleven Manly West,459 Manly Road,Manly West,Eastern,retailer,1,1,0,0,1,1,1,1,1,1,1,1,0,0,0,0,2009/09/11 12:18,2012/01/23 14:51,1, ,-27.4755,153.166
135,7-Eleven Marcoola,946-948 David Low Way,Marcoola,Sunshine Coast,retailer,1,1,0,0,1,1,1,1,1,1,1,1,0,0,0,0,2009/09/11 12:18,2012/01/23 14:51,1, ,-26.6007,153.096
136,7-Eleven Maroochydore,"Aerodrome Road, corner Wirraway Street",Maroochydore,Sunshine Coast,retailer,1,1,0,0,1,1,1,1,1,1,1,1,0,0,0,0,2009/09/11 12:18,2012/01/23 14:51,1, ,-26.6624,153.105
137,Cotton Tree News,9 King Street,Maroochydore,Sunshine Coast,retailer,1,1,0,0,1,1,1,1,1,1,1,1,0,0,0,0,2009/09/11 12:18,2010/10/05 11:35,1, ,-26.6547,153.101
138,7-Eleven Maroochydore North,53 Aerodrome Road,Maroochydore,Sunshine Coast,retailer,1,1,0,0,1,1,1,1,1,1,1,1,0,0,0,0,2009/09/11 12:18,2012/08/20 17:50,1, ,-26.6605,153.1
139,7-Eleven Mermaid Waters,1 Lakeview Boulevard,Mermaid Waters,Gold Coast,retailer,1,1,0,0,1,1,1,1,1,1,1,1,0,0,0,0,2009/09/11 12:18,2012/01/23 14:52,1, ,-27.9977,153.373
140,Milton News Centre,"Shop 3, Milton Shopping Centre, Baroona Road",Milton,Brisbane West,retailer,1,1,0,0,1,1,1,1,1,1,1,1,0,0,0,0,2009/09/11 12:18,2010/10/05 11:40,1, ,-27.4685,153.003
141,Mitchelton station,McConaghy Street,Mitchelton,Brisbane North,station,1,1,1,1,1,1,1,1,1,1,1,1,0,0,0,0,2009/09/11 12:18,2010/10/05 11:42,1, ,-27.4115,152.976
142,7-Eleven Mooloolaba,85 The Esplanade,Mooloolaba,Sunshine Coast,retailer,1,1,0,0,1,1,1,1,1,1,1,1,0,0,0,0,2009/09/11 12:18,2012/01/23 14:52,1, ,-26.6841,153.125
143,7-Eleven Morayfield,272 Morayfield Road,Morayfield,Northern,retailer,1,1,0,0,1,1,1,1,1,1,1,1,0,0,0,0,2009/09/11 12:18,2012/01/23 14:52,1, ,-27.1123,152.951
144,Morayfield station,Visentin Road,Morayfield,Northern,station,1,1,1,1,1,1,1,1,1,1,1,1,0,0,0,0,2009/09/11 12:18,2010/10/05 11:50,1, ,-27.1098,152.952
145,Supanews Garden City Upper Level,"Garden City (upper level), Logan Road, corner Kessels Road",Mount Gravatt,Brisbane South,retailer,1,1,1,1,1,1,1,1,1,1,1,1,1,1,0,0,2009/09/11 12:18,2013/05/15 18:14,2, ,-27.5641,153.082
146,Newsplus Mt Ommaney,"Mt Ommaney Shopping Centre, 171  Dandenong Road",Mt Ommaney,Brisbane West,retailer,1,1,1,1,1,1,1,1,1,1,1,1,0,0,0,0,2009/09/11 12:18,2012/04/02 10:19,2, ,-27.556498,152.933139
147,7-Eleven Murrumba Downs,9 Blyth Road,Murrumba Downs,Northern,retailer,1,1,0,0,1,1,1,1,1,1,1,1,0,0,0,0,2009/09/11 12:18,2013/08/07 17:59,1,,-27.2732,153.015
148,Nambour station,Civic Way,Nambour,Sunshine Coast,station,1,1,1,1,1,1,1,1,1,1,1,1,0,1,0,0,2009/09/11 12:18,2012/11/07 10:55,1, ,-26.6258,152.958
149,Nathan Post Office,"Kessels Road, Community Centre, Griffith University",Nathan,Brisbane South,retailer,1,1,1,1,1,1,1,1,1,1,1,1,1,1,0,0,2009/09/11 12:18,2012/11/07 10:45,1, ,-27.5529,153.054
150,Nerang station,Warrener Street,Nerang,Gold Coast,station,1,1,1,1,1,1,1,1,1,1,1,1,0,0,0,0,2009/09/11 12:18,2010/10/05 12:09,1, ,-27.9943,153.35
151,7-Eleven New Farm,79 Merthyr Road,New Farm,Brisbane Central,retailer,1,1,0,0,1,1,1,1,1,1,1,1,0,0,0,0,2009/09/11 12:18,2012/01/23 14:53,1, ,-27.4674,153.046
152,7-Eleven Noosa,91-97 Noosa Drive,Noosa Heads,Sunshine Coast,retailer,1,1,0,0,1,1,1,1,1,1,1,1,0,0,0,0,2009/09/11 12:18,2012/08/20 18:00,1, ,-26.3971,153.088
154,Northgate station,"Ryan Street, corner Holland Street",Northgate,Brisbane North,station,1,1,1,1,1,1,1,1,1,1,1,1,0,0,0,0,2009/09/11 12:18,2010/10/05 12:19,1, ,-27.3936,153.069
155,Toombul station,Collins Street,Nundah,Brisbane North,station,1,1,1,1,1,1,1,1,1,1,1,1,0,0,0,0,2009/09/11 12:18,2010/10/05 12:24,1, ,-27.4073,153.059
156,7-Eleven Oxenford,170 Old Pacific Highway,Oxenford,Gold Coast,retailer,1,1,0,0,1,1,1,1,1,1,1,1,0,0,0,0,2009/09/11 12:18,2012/01/23 14:56,1, ,-27.8853,153.314
157,Oxley station,Ardoyne Road,Oxley,Brisbane South,station,1,1,1,1,1,1,1,1,1,1,1,1,0,0,0,0,2009/09/11 12:18,2010/10/05 12:26,1, ,-27.5525,152.974
158,Paddington News ,"Shop 5, 95 Latrobe Terrace",Paddington,Brisbane North,retailer,1,1,0,0,1,1,1,1,1,1,1,1,0,0,0,0,2009/09/11 12:18,2010/10/05 12:29,1, ,-27.459,152.998
159,7-Eleven Palm Beach North,"1346-1354 Gold Coast Highway, Palm Beach North",Palm Beach,Gold Coast,retailer,1,1,0,0,1,1,1,1,1,1,1,1,0,0,0,0,2009/09/11 12:18,2012/08/20 18:01,1, ,-28.1086,153.466
160,Park Ridge News,Park Ridge Shopping Village corner Mt Lindesay Hwy and Park Ridge Road,Park Ridge,Southern,retailer,1,1,0,0,1,1,1,1,1,1,1,1,0,0,0,0,2009/09/11 12:18,2010/10/05 12:32,1, ,-27.6974,153.039
161,7-Eleven Parkwood,236 Napper Road,Parkwood,Gold Coast,retailer,1,1,0,0,1,1,1,1,1,1,1,1,0,0,0,0,2009/09/11 12:18,2012/01/23 14:57,1, ,-27.9471,153.351
162,7-Eleven Red Hill,152 Musgrave Road,Red Hill (Brisbane City),Brisbane North,retailer,1,1,0,0,1,1,1,1,1,1,1,1,0,0,0,0,2009/09/11 12:18,2012/08/20 18:09,1,Store closed temporarily for refurbishment,-27.4554,153.007
163,7-Eleven Redbank Plains,355 Redbanks Plains Road,Redbank Plains,Western,retailer,1,1,0,0,1,1,1,1,1,1,1,1,0,0,0,0,2009/09/11 12:18,2012/01/23 14:57,1, ,-27.6449,152.871
164,7-Eleven Redcliffe,77 Anzac Avenue,Redcliffe,Northern,retailer,1,1,0,0,1,1,1,1,1,1,1,1,0,0,0,0,2009/09/11 12:18,2012/01/23 14:58,1, ,-27.2305,153.109
165,Redland Bay News ,"Shop 29, Redland Bay Shopping Centre, Broadwater Terrace ",Redland Bay,Eastern,retailer,1,1,0,0,1,1,1,1,1,1,1,1,0,0,0,0,2009/09/11 12:18,2010/10/05 12:38,1, ,-27.6047,153.301
166,7-Eleven Riverhills,"Sumners Road, corner Wacol Station Road",Riverhills,Western,retailer,1,1,0,0,1,1,1,1,1,1,1,1,0,0,0,0,2009/09/11 12:18,2012/08/20 18:10,1, ,-27.5622,152.922
167,Robina station,Bayberry Lane,Robina,Gold Coast,station,1,1,1,1,1,1,1,1,1,1,1,1,0,0,0,0,2009/09/11 12:18,2010/10/05 12:41,1, ,-28.0714,153.378
168,Rosewood station,Railway Street,Rosewood,Western,station,1,1,1,1,1,1,1,1,1,1,1,1,0,0,0,0,2009/09/11 12:18,2010/10/05 12:43,1, ,-27.6432,152.593
169,Sandgate station,Rainbow Street,Sandgate,Northern,station,1,1,1,1,1,1,1,1,1,1,1,1,0,0,0,0,2009/09/11 12:18,2010/10/05 12:48,1, ,-27.3222,153.069
170,Nextra Shailer Park News,"Shop 128, Logan Hyperdome, Pacific Highway, corner Bryants Road",Loganholme,Southern,retailer,1,1,1,1,1,1,1,1,1,1,1,1,1,1,0,0,2009/09/11 12:18,2013/04/04 09:53,2,This agent is temporarily closed until further notice.,-27.6603,153.174
171,7-Eleven Silkstone,"Blackstone Road, corner South Station Road",Silkstone,Western,retailer,1,1,0,0,1,1,1,1,1,1,1,1,0,0,0,0,2009/09/11 12:18,2012/01/23 14:58,1, ,-27.6109,152.79
172,NewsXpress Chancellor Park ,"Shop 7, Chancellor Park, Marketplace University Way",Sippy Downs,Sunshine Coast,retailer,1,1,0,0,1,1,1,1,1,1,1,1,0,0,0,0,2009/09/11 12:18,2010/10/05 12:51,1, ,-26.7152,153.055
173,South Brisbane station,Grey Street,South Brisbane,Brisbane Central,station,1,1,1,1,1,1,1,1,1,1,1,1,0,1,0,0,2009/09/11 12:18,2012/11/07 10:55,1, ,-27.4744,153.018
174,South Bank Beach News,"Stanley Street Plaza, Stanley Street",South Bank,Brisbane Central,retailer,1,1,0,0,1,1,1,1,1,1,1,1,1,0,0,0,2009/09/11 12:18,2012/01/17 16:55,1, ,-27.4785,153.023
175,7-Eleven Australia Fair,"Australia Fair, Scarborough Street",Southport,Gold Coast,retailer,1,1,0,0,1,1,1,1,1,1,1,1,0,0,0,0,2009/09/11 12:18,2012/01/23 14:58,1, ,-27.9695,153.414
176,Student Guild,"Griffith University, Parklands Drive, The Link Building, Gold Coast Campus",Southport,Gold Coast,retailer,1,1,0,0,1,1,1,1,1,1,1,1,0,0,0,0,2009/09/11 12:18,2010/10/05 12:59,1, ,-27.9604,153.381
177,7-Eleven Spring Hill,170 Leichhardt Street,Spring Hill,Brisbane North,retailer,1,1,0,0,1,1,1,1,1,1,1,1,0,0,0,0,2009/09/11 12:18,2012/01/23 14:59,1, ,-27.462,153.026
178,Springfield Fair News,Springfield Fair Shopping Centre ,Springfield,Brisbane West,retailer,1,1,0,0,1,1,1,1,1,1,1,1,0,0,0,0,2009/09/11 12:18,2010/10/06 10:15,1, ,-27.6533,152.918
179,7-Eleven Springwood,"Springwood Street, corner Pannikin Street",Springwood,Southern,retailer,1,1,0,0,1,1,1,1,1,1,1,1,0,0,0,0,2009/09/11 12:18,2012/01/23 14:59,1, ,-27.61,153.124
180,Springwood Mall Newsagency ,"Shop 9, Centro Shopping Centre, Fitzgerald Avenue",Springwood,Southern,retailer,1,1,0,0,1,1,1,1,1,1,1,1,0,0,0,0,2009/09/11 12:18,2010/10/06 10:18,1, ,-27.6147,153.125
181,Campus News,"Staffhouse Road, Union Complex, University Of Queensland (building 4)",St Lucia,Brisbane West,retailer,1,1,1,1,1,1,1,1,1,1,1,1,1,1,0,0,2009/09/11 12:18,2012/11/07 10:48,1, ,-27.4982,153.014
182,St Lucia News,217 Hawken Drive,St Lucia,Brisbane West,retailer,1,1,0,0,1,1,1,1,1,1,1,1,0,0,0,0,2009/09/11 12:18,2010/10/06 10:20,1, ,-27.5025,153.006
183,Stafford City News,"Stafford City Shopping Centre, 400 Stafford Road",Stafford,Brisbane North,retailer,1,1,0,0,1,1,1,1,1,1,1,1,0,0,0,0,2009/09/11 12:18,2011/01/18 09:36,1, ,-27.4121,153.013
184,Strathpine station,Station Street,Strathpine,Northern,station,1,1,1,1,1,1,1,1,1,1,1,1,0,0,0,0,2009/09/11 12:18,2010/10/06 10:23,1, ,-27.3118,152.99
185,7-Eleven Sunnybank,82 Pinelands Road,Sunnybank,Brisbane South,retailer,1,1,0,0,1,1,1,1,1,1,1,1,0,0,0,0,2009/09/11 12:18,2012/01/23 15:06,1, ,-27.5915,153.06
186,7-Eleven Sunnybank Market Square,"Mains Road, corner McCulloch Street",Sunnybank,Brisbane South,retailer,1,1,0,0,1,1,1,1,1,1,1,1,0,0,0,0,2009/09/11 12:18,2012/01/23 15:05,1, ,-27.5722,153.064
187,7-Eleven Sunnybank Hills,"Compton Road, corner Gowan Road",Sunnybank Hills,Brisbane South,retailer,1,1,0,0,1,1,1,1,1,1,1,1,0,0,0,0,2009/09/11 12:18,2012/01/23 15:06,1, ,-27.6112,153.063
188,7-Eleven Surfers Paradise,3187 Gold Coast Highway,Surfers Paradise,Gold Coast,retailer,1,1,0,0,1,1,1,1,1,1,1,1,0,0,0,0,2009/09/11 12:18,2013/02/11 17:01,1,,-27.9992,153.429
189,7-Eleven Orchid Avenue Surfers Paradise,"7a Cavill Court, Orchid Avenue",Surfers Paradise,Gold Coast,retailer,1,1,0,0,1,1,1,1,1,1,1,1,0,0,0,0,2009/09/11 12:18,2012/01/23 15:12,1, ,-28.0019,153.43
190,7-Eleven The Paradise Centre Surfers Paradise,"The Paradise Centre, Cavill Avenue",Surfers Paradise,Gold Coast,retailer,1,1,0,0,1,1,1,1,1,1,1,1,0,0,0,0,2009/09/11 12:18,2012/01/23 15:12,1, ,-28.0018,153.428
191,NewsXpress The Gap,"The Gap Village, 1000 Waterworks Road",The Gap (Brisbane City),Brisbane North,retailer,1,1,0,0,1,1,1,1,1,1,1,1,0,0,0,0,2009/09/11 12:18,2012/08/20 18:19,1, ,-27.445,152.952
192,7-Eleven Toowong,50 Sherwood Road,Toowong,Brisbane West,retailer,1,1,0,0,1,1,1,1,1,1,1,1,0,0,0,0,2009/09/11 12:18,2012/01/23 15:12,1, ,-27.4857,152.991
193,Toowong station,Sherwood Road,Toowong,Brisbane West,station,1,1,1,1,1,1,1,1,1,1,1,1,0,0,0,0,2009/09/11 12:18,2010/10/06 10:43,1, ,-27.4857,152.993
194,Supanews Underwood,3215 Logan Road,Underwood,Southern,retailer,1,1,0,0,1,1,1,1,1,1,1,1,0,0,0,0,2009/09/11 12:18,2013/01/02 11:03,1,,-27.607,153.11
195,Town Centre News,"Town Centre Shopping Centre, 355-369 Colburn Avenue",Victoria Point,Eastern,retailer,1,1,0,0,1,1,1,1,1,1,1,1,0,0,0,0,2009/09/11 12:18,2010/10/06 10:47,1, ,-27.5865,153.283
196,7-Eleven Warana,"Nicklin Way, corner Aquatic Drive",Warana,Sunshine Coast,retailer,1,1,0,0,1,1,1,1,1,1,1,1,0,0,0,0,2009/09/11 12:18,2012/01/23 15:13,1, ,-26.7197,153.13
197,7-Eleven West End,94 Boundary Street,West End (Brisbane City),Brisbane South,retailer,1,1,0,0,1,1,1,1,1,1,1,1,0,0,0,0,2009/09/11 12:18,2012/08/20 18:25,1, ,-27.4786,153.013
198,West End News,199 Boundary Street,West End (Brisbane City),Brisbane South,retailer,1,1,0,0,1,1,1,1,1,1,1,1,0,0,0,0,2009/09/11 12:18,2012/08/20 18:26,1, ,-27.4807,153.012
199,7-Eleven Windaroo,159-163 Beenleigh-Beaudesert Road,Windaroo,Southern,retailer,1,1,0,0,1,1,1,1,1,1,1,1,0,0,0,0,2009/09/11 12:18,2012/01/23 15:13,1, ,-27.7444,153.187
200,7-Eleven Wishart,"Mt Gravatt-Capalaba Road, corner Newnham Road",Wishart,Brisbane South,retailer,1,1,0,0,1,1,1,1,1,1,1,1,0,0,0,0,2009/09/11 12:18,2012/01/23 15:13,1, ,-27.5559,153.09
201,7-Eleven Woodridge,"Compton Road, corner North Road",Woodridge,Southern,retailer,1,1,0,0,1,1,1,1,1,1,1,1,0,0,0,0,2009/09/11 12:18,2012/01/23 15:13,1, ,-27.6187,153.105
202,Woodridge station,Station Road,Woodridge,Southern,station,1,1,1,1,1,1,1,1,1,1,1,1,0,0,0,0,2009/09/11 12:18,2010/10/06 11:01,1, ,-27.6382,153.104
203,Mater News Central,550 Stanley Street,Woolloongabba,Brisbane South,retailer,1,1,1,1,1,1,1,1,1,1,1,1,1,1,0,0,2009/09/11 12:18,2012/11/07 10:47,1, ,-27.4848,153.028
204,7-Eleven Wynnum,"Edith Road, corner Tingal Road",Wynnum,Eastern,retailer,1,1,0,0,1,1,1,1,1,1,1,1,0,0,0,0,2009/09/11 12:18,2012/06/04 11:51,1,,-27.4462,153.172
205,7-Eleven Yamanto,"130 Ash Street, corner Astral Court",Yamanto,Western,retailer,1,1,0,0,1,1,1,1,1,1,1,1,0,0,0,0,2009/09/11 12:18,2012/01/23 15:14,1, ,-27.6547,152.754
206,7-Eleven Yeronga,563 Fairfield Road,Yeronga,Brisbane South,retailer,1,1,0,0,1,1,1,1,1,1,1,1,0,0,0,0,2009/09/11 12:18,2012/01/23 15:14,1, ,-27.5195,153.015
207,7-Eleven Zillmere,"Zillmere Road, corner Handford Road",Zillmere,Brisbane North,retailer,1,1,0,0,1,1,1,1,1,1,1,1,0,0,0,0,2009/09/11 12:18,2012/01/23 15:15,1, ,-27.3595,153.038
208,Zillmere station,Zillmere Road,Zillmere,Brisbane North,station,1,1,1,1,1,1,1,1,1,1,1,1,0,0,0,0,2009/09/11 12:18,2010/10/06 11:14,1, ,-27.3593,153.037
211,Four Square ,18 Cracknell Road,Annerley,Brisbane South,retailer,1,0,0,0,0,1,1,1,1,1,1,1,0,0,0,0,1900/01/01 00:00,2010/09/23 11:12,1, ,-27.5184,153.03
212,Josies and Leo Convenience Store,212 Cracknell Road,Tarragindi,Brisbane South,retailer,1,0,0,0,0,1,1,1,1,1,1,1,0,0,0,0,1900/01/01 00:00,2010/10/06 10:35,1, ,-27.5199,153.041
213,Kenmore News & Casket,2069 Moggill Road ,Kenmore,Brisbane West,retailer,1,0,0,0,0,1,1,1,1,1,1,1,0,0,0,0,1900/01/01 00:00,2010/10/05 11:14,1, ,-27.5085,152.938
214,Moorvale News,186 Beaudesert Road,Moorooka,Brisbane South,retailer,1,0,0,0,0,1,1,1,1,1,1,1,0,0,0,0,1900/01/01 00:00,2010/10/05 11:49,1, ,-27.5326,153.025
217,Nextra Warner News,"Shop 14, Warner Village Shopping Centre, Old North, corner Samsonvale Road",Warner,Northern,retailer,1,0,0,0,0,1,1,1,1,1,1,1,0,0,0,0,1900/01/01 00:00,2012/11/29 11:21,2, ,-27.2932,152.953
218,Taigum News,"Shop 28, Taigum Central Shopping Centre, Beams Road",Taigum,Brisbane North,retailer,1,0,0,0,0,1,1,1,1,1,1,1,0,0,0,0,1900/01/01 00:00,2010/10/06 10:34,1, ,-27.3507,153.047
219,Walton Bridge News,"Shop 10, 974 Waterworks Road ",The Gap (Brisbane City),Brisbane North,retailer,1,0,0,0,0,1,1,1,1,1,1,1,0,0,0,0,1900/01/01 00:00,2012/08/20 18:19,1, ,-27.4451,152.952
220,Wynnum North Newsagency,"Shop 1, 150 Selina Road ",Wynnum,Eastern,retailer,1,0,0,0,0,1,1,1,1,1,1,1,0,0,0,0,1900/01/01 00:00,2012/08/20 18:30,1, ,-27.4368,153.159
221,Coolum News & Minimart,1786 David Low Way,Coolum Beach,Sunshine Coast,retailer,1,0,0,0,0,1,1,1,1,1,1,1,0,0,0,0,1900/01/01 00:00,2010/12/20 15:23,1, ,-26.5309,153.091
224,Nextra Toombul,Sandgate Road,Toombul,Brisbane North,retailer,1,0,0,0,0,1,1,1,1,1,1,1,0,0,0,0,1900/01/01 00:00,2010/10/06 10:40,1, ,-27.4086,153.061
225,Bli Bli News,"Shop 5, River Markets, David Low Way",Bli Bli,Sunshine Coast,retailer,1,0,0,0,0,1,1,1,1,1,1,1,0,0,0,0,1900/01/01 00:00,2010/09/23 11:41,1, ,-26.6221,153.044
226,News Bulletin,"Shop 6, Deagon Market Square, 75 Braun St",Deagon,Brisbane North,retailer,1,0,0,0,0,1,1,1,1,1,1,1,0,0,0,0,1900/01/01 00:00,2010/09/30 11:34,1, ,-27.3299,153.057
227,Banyo News and Officesmart,276 St Vincents Road,Banyo,Brisbane North,retailer,1,0,0,0,0,1,1,1,1,1,1,1,0,0,0,0,1900/01/01 00:00,2010/09/23 11:30,1, ,-27.3749,153.077
228,Rode Newsagency,"Shop 22 Rode Shopping Centre, Appleby Road",Stafford Heights,Brisbane North,retailer,1,0,0,0,0,1,1,1,1,1,1,1,0,0,0,0,1900/01/01 00:00,2010/10/06 10:21,1, ,-27.3917,153.012
229,Albion station,49 Albion Road,Albion,Brisbane North,faremachine,0,1,0,0,0,1,1,1,0,0,0,0,0,0,0,0,1900/01/01 00:00,2012/02/29 10:54,1, ,-27.4292,153.04
230,Alderley station,Railway Place,Alderley,Brisbane North,faremachine,0,1,0,0,0,1,1,1,0,0,0,0,0,0,0,0,1900/01/01 00:00,2012/02/29 10:55,1, ,-27.4227,153
231,Altandi station,125 Mains Road,Sunnybank,Brisbane South,faremachine,0,1,0,0,0,1,1,1,0,0,0,0,0,0,0,0,1900/01/01 00:00,2010/10/06 10:25,1, ,-27.5821,153.063
232,Ascot station,McGill Avenue,Ascot (Brisbane City),Brisbane North,faremachine,0,1,0,0,0,1,1,1,0,0,0,0,0,0,0,0,1900/01/01 00:00,2012/08/20 16:57,1, ,-27.4301,153.064
233,Auchenflower station,Auchenflower Terrace,Auchenflower,Brisbane West,faremachine,0,1,0,0,0,1,1,1,0,0,0,0,0,0,0,0,1900/01/01 00:00,2012/02/29 10:55,1, ,-27.4761,152.997
234,Bald Hills station,Cullimore Street,Bald Hills,Brisbane North,faremachine,0,1,0,0,0,1,1,1,0,0,0,0,0,0,0,0,1900/01/01 00:00,2012/02/29 10:56,1, ,-27.3208,153.011
235,Banoon station,82 Breton Street,Sunnybank,Brisbane South,faremachine,0,1,0,0,0,1,1,1,0,0,0,0,0,0,0,0,1900/01/01 00:00,2010/10/06 10:26,1, ,-27.5763,153.046
236,Banyo station,268 St Vincents Road,Banyo,Brisbane North,faremachine,0,1,0,0,0,1,1,1,0,0,0,0,0,0,0,0,1900/01/01 00:00,2012/02/29 10:56,1,,-27.3749,153.077
237,Beenleigh station,Alamein Street,Beenleigh,Southern,faremachine,0,1,0,0,0,1,1,1,0,0,0,0,0,0,0,0,1900/01/01 00:00,2012/02/29 10:56,1, ,-27.7174,153.204
238,Beerburrum station,Church Street,Beerburrum,Northern,faremachine,0,1,0,0,0,1,1,1,0,0,0,0,0,0,0,0,1900/01/01 00:00,2012/02/29 10:57,1, ,-26.9603,152.959
239,Beerwah station,Beerwah Parade,Beerwah,Northern,faremachine,0,1,0,0,0,1,1,1,0,0,0,0,0,0,0,0,1900/01/01 00:00,2012/02/29 10:57,1, ,-26.8582,152.958
240,Bethania station,Station Road,Bethania,Southern,faremachine,0,1,0,0,0,1,1,1,0,0,0,0,0,0,0,0,1900/01/01 00:00,2012/02/29 11:13,1, ,-27.6883,153.158
241,Bindha station,Park Street,Banyo,Brisbane North,faremachine,0,1,0,0,0,1,1,1,0,0,0,0,0,0,0,0,1900/01/01 00:00,2012/02/29 10:56,1, ,-27.3807,153.074
242,Birkdale station,Napier Street,Birkdale,Eastern,faremachine,0,1,0,0,0,1,1,1,0,0,0,0,0,0,0,0,1900/01/01 00:00,2012/02/29 11:13,1, ,-27.4938,153.218
243,Boondall station,Aberdeen Parade,Boondall,Brisbane North,faremachine,0,1,0,0,0,1,1,1,0,0,0,0,0,0,0,0,1900/01/01 00:00,2012/02/29 11:14,1, ,-27.3455,153.067
244,Booval station,South Station Road,Booval,Western,faremachine,0,1,0,0,0,1,1,1,0,0,0,0,0,0,0,0,1900/01/01 00:00,2012/02/29 11:14,1, ,-27.6093,152.79
245,Bowen Hills station,Abbotsford Road,Bowen Hills,Brisbane Central,faremachine,0,1,0,0,0,1,1,1,0,0,0,0,0,0,0,0,1900/01/01 00:00,2012/02/29 11:14,1, ,-27.4456,153.038
246,Bray Park station,Railway Avenue,Bray Park (Moreton Bay Regional),Northern,faremachine,0,1,0,0,0,1,1,1,0,0,0,0,0,0,0,0,1900/01/01 00:00,2012/08/20 17:03,1, ,-27.2993,152.986
247,Fortitude Valley station,Brunswick Street,Fortitude Valley,Brisbane Central,faremachine,0,1,0,0,0,1,1,1,0,0,0,0,0,0,0,0,1900/01/01 00:00,2010/09/30 12:01,1, ,-27.4567,153.033
248,Bundamba station,Mining Street,Bundamba,Western,faremachine,0,1,0,0,0,1,1,1,0,0,0,0,0,0,0,0,1900/01/01 00:00,2012/02/29 11:16,1, ,-27.6075,152.805
249,Buranda station,Gillingham Street,Buranda,Brisbane South,faremachine,0,1,0,0,0,1,1,1,0,0,0,0,0,0,0,0,1900/01/01 00:00,2012/02/29 11:16,1, ,-27.4966,153.04
250,Burpengary station,Burpengary Road,Burpengary,Northern,faremachine,0,1,0,0,0,1,1,1,0,0,0,0,0,0,0,0,1900/01/01 00:00,2012/02/29 11:17,1, ,-27.1624,152.957
251,Caboolture station,Matthew Terrace,Caboolture,Northern,faremachine,0,1,0,0,0,1,1,1,0,0,0,0,0,0,0,0,1900/01/01 00:00,2012/02/29 11:18,1, ,-27.0835,152.954
252,Cannon Hill station,60 Barracks Road,Cannon Hill,Brisbane East,faremachine,0,1,0,0,0,1,1,1,0,0,0,0,0,0,0,0,1900/01/01 00:00,2012/02/29 11:18,1, ,-27.4653,153.089
253,Carseldine station,Beams Road,Carseldine,Brisbane North,faremachine,0,1,0,0,0,1,1,1,0,0,0,0,0,0,0,0,1900/01/01 00:00,2012/02/29 11:19,1, ,-27.3476,153.029
254,Central station,Cnr Edward and Ann Street,Brisbane (city),Brisbane Central,faremachine,0,1,0,0,0,1,1,1,0,0,0,0,0,0,0,0,1900/01/01 00:00,2010/09/23 11:58,1, ,-27.4658,153.026
255,Chelmer station,140 Honour Avenue,Chelmer,Brisbane South,faremachine,0,1,0,0,0,1,1,1,0,0,0,0,0,0,0,0,1900/01/01 00:00,2012/02/29 11:19,1, ,-27.5116,152.973
256,Clayfield station,761 Sandgate Road,Clayfield,Brisbane North,faremachine,0,1,0,0,0,1,1,1,0,0,0,0,0,0,0,0,1900/01/01 00:00,2012/02/29 11:20,1, ,-27.4175,153.057
257,Cleveland station,Shore Street,Cleveland,Eastern,faremachine,0,1,0,0,0,1,1,1,0,0,0,0,0,0,0,0,1900/01/01 00:00,2012/02/29 11:20,1, ,-27.5242,153.266
258,Coomera station,Railway Reserve 11 Foxwell Road,Coomera,Gold Coast,faremachine,0,1,0,0,0,1,1,1,0,0,0,0,0,0,0,0,1900/01/01 00:00,2012/02/29 11:20,1, ,-27.8535,153.318
259,Coopers Plains station,Henley Street,Coopers Plains,Brisbane South,faremachine,0,1,0,0,0,1,1,1,0,0,0,0,0,0,0,0,1900/01/01 00:00,2012/02/29 11:21,1, ,-27.5684,153.036
260,Cooroy  station,Elm Street,Cooroy,Sunshine Coast,faremachine,0,1,0,0,0,1,1,1,0,0,0,0,0,0,0,0,1900/01/01 00:00,2012/02/29 11:21,1, ,-26.4187,152.911
261,Coorparoo station,Cavendish Road,Coorparoo,Brisbane East,faremachine,0,1,0,0,0,1,1,1,0,0,0,0,0,0,0,0,1900/01/01 00:00,2012/02/29 11:21,1, ,-27.4897,153.055
262,Corinda station,Cnr Watt & Ruthven Street,Corinda,Brisbane South,faremachine,0,1,0,0,0,1,1,1,0,0,0,0,0,0,0,0,1900/01/01 00:00,2012/02/29 11:22,1, ,-27.5396,152.98
263,Dakabin station,Narangba Road,Dakabin,Northern,faremachine,0,1,0,0,0,1,1,1,0,0,0,0,0,0,0,0,1900/01/01 00:00,2012/02/29 11:22,1, ,-27.2285,152.975
264,Darra station,Darra Station Road,Darra,Brisbane West,faremachine,0,1,0,0,0,1,1,1,0,0,0,0,0,0,0,0,1900/01/01 00:00,2012/02/29 11:22,1, ,-27.5659,152.952
265,Deagon station,Adams Street,Deagon,Brisbane North,faremachine,0,1,0,0,0,1,1,1,0,0,0,0,0,0,0,0,1900/01/01 00:00,2012/02/29 11:42,1, ,-27.3273,153.063
266,Dinmore station,Mason Street,Dinmore,Western,faremachine,0,1,0,0,0,1,1,1,0,0,0,0,0,0,0,0,1900/01/01 00:00,2010/09/30 11:36,1, ,-27.5964,152.833
267,Domestic Terminal station,Airport Drive,Airport (Brisbane),Brisbane East,faremachine,0,1,0,0,0,1,1,1,0,0,0,0,0,0,0,0,1900/01/01 00:00,2012/02/29 10:54,1, ,-27.3852,153.119
268,Doomben station,Lamington Avenue,Doomben,Brisbane North,faremachine,0,1,0,0,0,1,1,1,0,0,0,0,0,0,0,0,1900/01/01 00:00,2010/09/30 11:36,1, ,-27.4314,153.075
269,Dutton Park station,Railway Terrace,Dutton Park,Brisbane South,faremachine,0,1,0,0,0,1,1,1,0,0,0,0,0,0,0,0,1900/01/01 00:00,2010/09/30 11:37,1, ,-27.4998,153.029
270,Eagle Junction station,Junction Road,Eagle Junction,Brisbane North,faremachine,0,1,0,0,0,1,1,1,0,0,0,0,0,0,0,0,1900/01/01 00:00,2010/09/30 11:38,1, ,-27.4151,153.05
271,East Ipswich station,Merton Street,East Ipswich,Western,faremachine,0,1,0,0,0,1,1,1,0,0,0,0,0,0,0,0,1900/01/01 00:00,2010/09/30 11:40,1, ,-27.61,152.775
272,Ebbw Vale station,Brisbane Road,Ebbw Vale,Western,faremachine,0,1,0,0,0,1,1,1,0,0,0,0,0,0,0,0,1900/01/01 00:00,2010/09/30 11:41,1, ,-27.6033,152.822
273,Edens Landing station,Eddy Avenue,Edens Landing,Southern ,faremachine,0,1,0,0,0,1,1,1,0,0,0,0,0,0,0,0,1900/01/01 00:00,2010/09/30 11:42,1, ,-27.6982,153.171
274,Elimbah station,English Street,Elimbah,Northern,faremachine,0,1,0,0,0,1,1,1,0,0,0,0,0,0,0,0,1900/01/01 00:00,2010/09/30 11:53,1, ,-27.0113,152.946
275,Enoggera station,Glenalva Terrace,Enoggera,Brisbane North,faremachine,0,1,0,0,0,1,1,1,0,0,0,0,0,0,0,0,1900/01/01 00:00,2010/09/30 11:53,1, ,-27.4203,152.992
276,Eudlo station,Rosebed Street,Eudlo,Sunshine Coast,faremachine,0,1,0,0,0,1,1,1,0,0,0,0,0,0,0,0,1900/01/01 00:00,2010/09/30 11:54,1, ,-26.7259,152.957
277,Farifield station,Midway Street,Fairfield,Brisbane South,faremachine,0,1,0,0,0,1,1,1,0,0,0,0,0,0,0,0,1900/01/01 00:00,2010/09/30 11:55,1, ,-27.5095,153.028
278,Ferny Grove station,Conavalla Street,Ferny Grove,Brisbane North,faremachine,0,1,0,0,0,1,1,1,0,0,0,0,0,0,0,0,1900/01/01 00:00,2010/11/02 12:25,1, ,-27.4013,152.935
279,Fruitgrove station,Beenleigh Road,Runcorn,Brisbane South,faremachine,0,1,0,0,0,1,1,1,0,0,0,0,0,0,0,0,1900/01/01 00:00,2010/10/05 12:44,1, ,-27.5983,153.08
280,Gailes station,Wilruna Street,Gailes,Western,faremachine,0,1,0,0,0,1,1,1,0,0,0,0,0,0,0,0,1900/01/01 00:00,2010/09/30 12:09,1, ,-27.6018,152.919
281,Gaythorne station,30 Station Avenue,Enoggera,Brisbane North,faremachine,0,1,0,0,0,1,1,1,0,0,0,0,0,0,0,0,1900/01/01 00:00,2010/09/30 11:54,1, ,-27.4193,152.986
282,Geebung station,Railway Parade,Geebung,Brisbane North,faremachine,0,1,0,0,0,1,1,1,0,0,0,0,0,0,0,0,1900/01/01 00:00,2010/09/30 12:12,1, ,-27.3689,153.047
283,Glasshouse Mountains station,Reed Street,Glasshouse Mountains,Northern,faremachine,0,1,0,0,0,1,1,1,0,0,0,0,0,0,0,0,1900/01/01 00:00,2010/09/30 12:13,1, ,-26.8997,152.957
284,Goodna station,Ryan Street,Goodna,Western,faremachine,0,1,0,0,0,1,1,1,0,0,0,0,0,0,0,0,1900/01/01 00:00,2010/09/30 12:13,1, ,-27.6088,152.902
285,Graceville station,Honour Avenue,Graceville,Brisbane South,faremachine,0,1,0,0,0,1,1,1,0,0,0,0,0,0,0,0,1900/01/01 00:00,2010/09/30 12:14,1, ,-27.5213,152.976
286,Grovely station,Blaker road,Grovely,Brisbane North,faremachine,0,1,0,0,0,1,1,1,0,0,0,0,0,0,0,0,1900/01/01 00:00,2010/09/30 12:17,1, ,-27.405,152.962
287,Gympie North station,Sandy Creek Road,Gympie North,Sunshine Coast,faremachine,0,1,0,0,0,1,1,1,0,0,0,0,0,0,0,0,1900/01/01 00:00,2010/09/30 12:18,1, ,-26.1627,152.686
288,Helensvale station,Town Centre Drive,Helensvale,Gold Coast,faremachine,0,1,0,0,0,1,1,1,0,0,0,0,0,0,0,0,1900/01/01 00:00,2010/09/30 12:20,1, ,-27.9258,153.339
289,Hemmant station,38 Hemmant-Tingalpa Road,Hemmant,Brisbane East,faremachine,0,1,0,0,0,1,1,1,0,0,0,0,0,0,0,0,1900/01/01 00:00,2010/09/30 12:21,1, ,-27.4475,153.127
290,Hendra station,Chermside Street,Hendra,Brisbane North,faremachine,0,1,0,0,0,1,1,1,0,0,0,0,0,0,0,0,1900/01/01 00:00,2010/09/30 12:22,1, ,-27.4222,153.063
291,Holmview station,Spanns Road,Beenleigh,Southern,faremachine,0,1,0,0,0,1,1,1,0,0,0,0,0,0,0,0,1900/01/01 00:00,2012/02/29 10:57,1, ,-27.7095,153.187
292,Indooroopilly station,Railway Avenue,Indooroopilly,Brisbane West,faremachine,0,1,0,0,0,1,1,1,0,0,0,0,0,0,0,0,1900/01/01 00:00,2010/09/30 12:28,1, ,-27.503,152.976
293,International Terminal station,Airport Drive,Airport (Brisbane),Brisbane East,faremachine,0,1,0,0,0,1,1,1,0,0,0,0,0,0,0,0,1900/01/01 00:00,2012/02/29 10:54,1, ,-27.403,153.109
294,Ipswich station,Bell Street,Ipswich,Western,faremachine,0,1,0,0,0,1,1,1,0,0,0,0,0,0,0,0,1900/01/01 00:00,2010/09/30 12:29,1, ,-27.6129,152.761
295,Karrabin station,Karrabin-Rosewood Road,Karrabin,Western,faremachine,0,1,0,0,0,1,1,1,0,0,0,0,0,0,0,0,1900/01/01 00:00,2010/10/05 11:11,1, ,-27.6045,152.709
296,Keperra station,Silvertop Street,Keperra,Brisbane North,faremachine,0,1,0,0,0,1,1,1,0,0,0,0,0,0,0,0,1900/01/01 00:00,2010/10/05 11:20,1, ,-27.409,152.957
297,Kingston station,Milky Way Street,Kingston,Southern,faremachine,0,1,0,0,0,1,1,1,0,0,0,0,0,0,0,0,1900/01/01 00:00,2010/10/05 11:21,1, ,-27.6574,153.118
298,Kuraby station,1370 Beenleigh Road,Kuraby,Southern,faremachine,0,1,0,0,0,1,1,1,0,0,0,0,0,0,0,0,1900/01/01 00:00,2010/10/05 11:22,1, ,-27.6049,153.091
299,Landsborough station,Cribb Street,Landsborough,Sunshine Coast,faremachine,0,1,0,0,0,1,1,1,0,0,0,0,0,0,0,0,1900/01/01 00:00,2010/10/05 11:23,1, ,-26.8084,152.966
300,Lawnton station,Station Road,Lawnton,Northern,faremachine,0,1,0,0,0,1,1,1,0,0,0,0,0,0,0,0,1900/01/01 00:00,2010/10/05 11:24,1, ,-27.2816,152.981
301,Lindum station,Sibley Road,Lindum,Brisbane East,faremachine,0,1,0,0,0,1,1,1,0,0,0,0,0,0,0,0,1900/01/01 00:00,2010/10/05 11:26,1, ,-27.4421,153.145
302,Loganlea station,Station Road,Loganlea,Southern,faremachine,0,1,0,0,0,1,1,1,0,0,0,0,0,0,0,0,1900/01/01 00:00,2010/10/05 11:31,1, ,-27.671,153.139
303,Lota station,Railway Terrace,Lota,Brisbane East,faremachine,0,1,0,0,0,1,1,1,0,0,0,0,0,0,0,0,1900/01/01 00:00,2010/10/05 11:31,1, ,-27.4701,153.188
304,Manly station,Ernest Street,Manly,Brisbane East,faremachine,0,1,0,0,0,1,1,1,0,0,0,0,0,0,0,0,1900/01/01 00:00,2010/10/05 11:33,1, ,-27.457,153.18
305,Milton station,Milton Road,Milton,Brisbane West,faremachine,0,1,0,0,0,1,1,1,0,0,0,0,0,0,0,0,1900/01/01 00:00,2010/10/05 11:41,1, ,-27.4686,153.006
306,Mitchelton station,McConaghy Street,Mitchelton,Brisbane North,faremachine,0,1,0,0,0,1,1,1,0,0,0,0,0,0,0,0,1900/01/01 00:00,2010/10/05 11:42,1, ,-27.4115,152.976
307,Mooloolah station, Mooloolah Connection Road,Mooloolah Valley,Sunshine Coast,faremachine,0,1,0,0,0,1,1,1,0,0,0,0,0,0,0,0,1900/01/01 00:00,2010/10/05 11:46,1, ,-26.7653,152.963
308,Moorooka station,1151 Ipswich Road,Moorooka,Brisbane South,faremachine,0,1,0,0,0,1,1,1,0,0,0,0,0,0,0,0,1900/01/01 00:00,2010/10/05 11:49,1, ,-27.5355,153.014
309,Morayfield station,Visentin Road,Morayfield,Northern,faremachine,0,1,0,0,0,1,1,1,0,0,0,0,0,0,0,0,1900/01/01 00:00,2010/10/18 12:17,1, ,-27.1098,152.952
310,Morningside station,Waminda Street,Morningside,Brisbane East,faremachine,0,1,0,0,0,1,1,1,0,0,0,0,0,0,0,0,1900/01/01 00:00,2010/10/05 11:51,1, ,-27.4705,153.07
311,Murarrie station,Murrarie Road,Murarrie,Brisbane East,faremachine,0,1,0,0,0,1,1,1,0,0,0,0,0,0,0,0,1900/01/01 00:00,2012/08/20 17:57,1, ,-27.4648,153.105
312,Nambour station,Civic Way,Nambour,Sunshine Coast,faremachine,0,1,0,0,0,1,1,1,0,0,0,0,0,0,0,0,1900/01/01 00:00,2010/10/05 12:06,1, ,-26.6258,152.958
313,Narangba station,448 Burpengary Road,Narangba,Northern,faremachine,0,1,0,0,0,1,1,1,0,0,0,0,0,0,0,0,1900/01/01 00:00,2010/10/05 12:07,1, ,-27.2029,152.961
314,Nerang station,Warrener Street,Nerang,Gold Coast,faremachine,0,1,0,0,0,1,1,1,0,0,0,0,0,0,0,0,1900/01/01 00:00,2010/10/05 12:10,1, ,-27.9943,153.35
315,Newmarket station,Abuklea Street,Newmarket,Brisbane North,faremachine,0,1,0,0,0,1,1,1,0,0,0,0,0,0,0,0,1900/01/01 00:00,2010/10/05 12:12,1, ,-27.4328,153.011
316,Norman Park station,Waite Street,Norman Park,Brisbane East,faremachine,0,1,0,0,0,1,1,1,0,0,0,0,0,0,0,0,1900/01/01 00:00,2010/10/05 12:17,1, ,-27.4818,153.062
317,North Boondall station,Aberdeen Street North,Boondall,Brisbane North,faremachine,0,1,0,0,0,1,1,1,0,0,0,0,0,0,0,0,1900/01/01 00:00,2012/02/29 11:14,1, ,-27.339,153.061
318,Northgate station,Cnr Ryan & Holland Street,Northgate,Brisbane North,faremachine,0,1,0,0,0,1,1,1,0,0,0,0,0,0,0,0,1900/01/01 00:00,2010/10/18 12:19,1, ,-27.3936,153.069
319,Nudgee station,Railway Street,Nudgee,Brisbane North,faremachine,0,1,0,0,0,1,1,1,0,0,0,0,0,0,0,0,1900/01/01 00:00,2012/01/16 18:28,1,,-27.3656,153.084
320,Nundah station,Station Street,Nundah,Brisbane North,faremachine,0,1,0,0,0,1,1,1,0,0,0,0,0,0,0,0,1900/01/01 00:00,2010/10/05 12:20,1, ,-27.4009,153.062
321,Ormeau station,200 Mirambeena Drive,Pimpama,Southern,faremachine,0,1,0,0,0,1,1,1,0,0,0,0,0,0,0,0,1900/01/01 00:00,2010/10/05 12:34,1, ,-27.7991,153.282
322,Ormiston station,Wellington Street,Ormiston,Eastern,faremachine,0,1,0,0,0,1,1,1,0,0,0,0,0,0,0,0,1900/01/01 00:00,2010/10/05 12:25,1, ,-27.5146,153.256
323,Oxford Park station,Scanlan Road,Mitchelton,Brisbane North,faremachine,0,1,0,0,0,1,1,1,0,0,0,0,0,0,0,0,1900/01/01 00:00,2010/10/05 11:42,1, ,-27.4042,152.968
324,Oxley station,140 Ardoyne Road,Oxley,Brisbane South,faremachine,0,1,0,0,0,1,1,1,0,0,0,0,0,0,0,0,1900/01/01 00:00,2010/10/05 12:28,1, ,-27.5525,152.974
325,Palmwoods station,Chevallum Road,Palmwoods (Sunshine Coast Regional),Sunshine Coast,faremachine,0,1,0,0,0,1,1,1,0,0,0,0,0,0,0,0,1900/01/01 00:00,2012/08/20 18:02,1, ,-26.6886,152.961
326,Park Road station,Quarry Street,Woolloongabba,Brisbane South,faremachine,0,1,0,0,0,1,1,1,0,0,0,0,0,0,0,0,1900/01/01 00:00,2012/08/20 18:05,1, ,-27.4937,153.031
327,Petrie station,Station Street,Petrie,Northern,faremachine,0,1,0,0,0,1,1,1,0,0,0,0,0,0,0,0,1900/01/01 00:00,2010/10/05 12:34,1, ,-27.2678,152.982
328,Redbank station,Cnr Brisbane Tce & Weedman St,Redbank,Western,faremachine,0,1,0,0,0,1,1,1,0,0,0,0,0,0,0,0,1900/01/01 00:00,2010/10/05 12:36,1, ,-27.5995,152.872
329,Riverview station,Moggill Ferry road,Riverview (Ipswich City),Western,faremachine,0,1,0,0,0,1,1,1,0,0,0,0,0,0,0,0,1900/01/01 00:00,2012/08/20 18:11,1, ,-27.595,152.851
330,Robina station,Bayberry Lane,Robina,Gold Coast,faremachine,0,1,0,0,0,1,1,1,0,0,0,0,0,0,0,0,1900/01/01 00:00,2010/10/05 12:40,1, ,-28.0714,153.378
331,Rocklea station,Brooke Street,Rocklea,Brisbane South,faremachine,0,1,0,0,0,1,1,1,0,0,0,0,0,0,0,0,1900/01/01 00:00,2010/10/05 12:42,1, ,-27.5447,153.014
332,Roma Street station,171 Roma Street,Brisbane (city),Brisbane Central,faremachine,0,1,0,0,0,1,1,1,0,0,0,0,0,0,0,0,1900/01/01 00:00,2012/02/29 11:15,1, ,-27.4652,153.019
333,Rosewood station,Railway Street,Rosewood,Western,faremachine,0,1,0,0,0,1,1,1,0,0,0,0,0,0,0,0,1900/01/01 00:00,2010/10/05 12:42,1, ,-27.6432,152.593
334,Runcorn station,800 Beenleigh Road,Runcorn,Brisbane South,faremachine,0,1,0,0,0,1,1,1,0,0,0,0,0,0,0,0,1900/01/01 00:00,2010/10/05 12:45,1, ,-27.5924,153.068
335,Salisbury station,Olivia Avenue,Salisbury,Brisbane South,faremachine,0,1,0,0,0,1,1,1,0,0,0,0,0,0,0,0,1900/01/01 00:00,2010/10/05 12:47,1, ,-27.5532,153.023
336,Sandgate station,Rainbow Street,Sandgate,Northern,faremachine,0,1,0,0,0,1,1,1,0,0,0,0,0,0,0,0,1900/01/01 00:00,2010/10/05 12:48,1, ,-27.3222,153.069
337,Sherwood station,Honour Avenue,Sherwood (Brisbane City),Brisbane South,faremachine,0,1,0,0,0,1,1,1,0,0,0,0,0,0,0,0,1900/01/01 00:00,2012/08/20 18:14,1, ,-27.5316,152.98
338,Shorncliffe station,Railway Parade,Shorncliffe,Brisbane North,faremachine,0,1,0,0,0,1,1,1,0,0,0,0,0,0,0,0,1900/01/01 00:00,2010/10/05 12:50,1, ,-27.3269,153.08
339,South Bank station,Grey Street,South Brisbane,Brisbane Central,faremachine,0,1,0,0,0,1,1,1,0,0,0,0,0,0,0,0,1900/01/01 00:00,2010/10/05 12:57,1, ,-27.4818,153.023
340,South Brisbane station,Grey Street,South Brisbane,Brisbane Central,faremachine,0,1,0,0,1,1,1,1,0,0,0,0,0,0,0,0,1900/01/01 00:00,2010/10/05 12:58,1, ,-27.4744,153.018
341,Strathpine station,Station Street,Strathpine,Northern,faremachine,0,1,0,0,0,1,1,1,0,0,0,0,0,0,0,0,1900/01/01 00:00,2010/10/06 10:23,1, ,-27.3118,152.99
342,Sunnybank station,Dixon Street,Sunnybank,Brisbane South,faremachine,0,1,0,0,0,1,1,1,0,0,0,0,0,0,0,0,1900/01/01 00:00,2010/10/06 10:27,1, ,-27.5808,153.054
343,Sunshine station,357 Bilsen Road,Geebung,Brisbane North,faremachine,0,1,0,0,0,1,1,1,0,0,0,0,0,0,0,0,1900/01/01 00:00,2012/08/20 18:17,1, ,-27.3753,153.056
344,Taringa station,1 Princess Street,Taringa,Brisbane West,faremachine,0,1,0,0,0,1,1,1,0,0,0,0,0,0,0,0,1900/01/01 00:00,2010/10/06 10:34,1, ,-27.493,152.982
345,Tennyson station,2 Myla Terrace,Tennyson,Brisbane South,faremachine,0,1,0,0,0,1,1,1,0,0,0,0,0,0,0,0,1900/01/01 00:00,2010/10/06 10:35,1, ,-27.5258,153.005
346,Thagoona station,Thagoona-Rosewood Road,Thagoona,Western,faremachine,0,1,0,0,0,1,1,1,0,0,0,0,0,0,0,0,1900/01/01 00:00,2010/10/06 10:37,1, ,-27.6266,152.63
347,Thomas Street station,Tallon Street,Sadliers Crossing,Western,faremachine,0,1,0,0,0,1,1,1,0,0,0,0,0,0,0,0,1900/01/01 00:00,2010/10/05 12:46,1, ,-27.6148,152.746
348,Thorneside station,Railway Parade,Thorneside,Eastern,faremachine,0,1,0,0,0,1,1,1,0,0,0,0,0,0,0,0,1900/01/01 00:00,2010/10/06 10:39,1, ,-27.4864,153.193
349,Toombul station,Collins Street,Nundah,Brisbane North,faremachine,0,1,0,0,0,1,1,1,0,0,0,0,0,0,0,0,1900/01/01 00:00,2010/10/05 12:24,1, ,-27.4073,153.059
350,Toowong station,Toowong Village Shopping Centre,Toowong,Brisbane West,faremachine,0,1,0,0,0,1,1,1,0,0,0,0,0,0,0,0,1900/01/01 00:00,2010/10/06 10:43,1, ,-27.4857,152.993
351,Trinder Park station,Railway Parade,Trinder Park,Southern,faremachine,0,1,0,0,0,1,1,1,0,0,0,0,0,0,0,0,1900/01/01 00:00,2010/10/06 10:43,1, ,-27.6314,153.098
352,Virginia  station,4 Wellington Street,Virginia,Brisbane North,faremachine,0,1,0,0,0,1,1,1,0,0,0,0,0,0,0,0,1900/01/01 00:00,2010/10/06 10:48,1, ,-27.3829,153.063
353,Wacol  station,Wilruna Street,Wacol,Western,faremachine,0,1,0,0,0,1,1,1,0,0,0,0,0,0,0,0,1900/01/01 00:00,2010/10/06 10:49,1, ,-27.589,152.924
354,Walloon  station,Station Lane,Walloon,Western,faremachine,0,1,0,0,0,1,1,1,0,0,0,0,0,0,0,0,1900/01/01 00:00,2010/10/06 10:50,1, ,-27.6073,152.668
355,Wellington Point station,Station Street,Wellington Point,Eastern,faremachine,0,1,0,0,0,1,1,1,0,0,0,0,0,0,0,0,1900/01/01 00:00,2011/11/22 12:32,1, ,-27.494284,153.241914
356,Wilston  station,Newmarket Road,Wilston,Brisbane North,faremachine,0,1,0,0,0,1,1,1,0,0,0,0,0,0,0,0,1900/01/01 00:00,2010/10/06 10:56,1, ,-27.4362,153.019
357,Windsor  station,Eildon Road,Windsor,Brisbane North,faremachine,0,1,0,0,0,1,1,1,0,0,0,0,0,0,0,0,1900/01/01 00:00,2010/10/06 10:57,1, ,-27.4352,153.029
358,Woodridge  station,Station Road,Woodridge,Southern,faremachine,0,1,0,0,0,1,1,1,0,0,0,0,0,0,0,0,1900/01/01 00:00,2010/10/06 11:01,1, ,-27.6382,153.104
359,Wooloowin  station,Hudson Street,Wooloowin,Brisbane North,faremachine,0,1,0,0,0,1,1,1,0,0,0,0,0,0,0,0,1900/01/01 00:00,2010/10/06 11:04,1, ,-27.42,153.043
360,Woombye  station,Blackall Street,Woombye,Sunshine Coast,faremachine,0,1,0,0,0,1,1,1,0,0,0,0,0,0,0,0,1900/01/01 00:00,2010/10/06 11:05,1, ,-26.6608,152.963
361,Wulkuraka  station,Grace Street,Wulkuraka,Western,faremachine,0,1,0,0,0,1,1,1,0,0,0,0,0,0,0,0,1900/01/01 00:00,2012/08/20 18:28,1, ,-27.6135,152.732
362,Wynnum  station,Thorn Street,Wynnum,Eastern,faremachine,0,1,0,0,0,1,1,1,0,0,0,0,0,0,0,0,1900/01/01 00:00,2010/10/06 11:07,1, ,-27.4397,153.166
363,Wynnum Central station,Ronald Street,Wynnum,Eastern,faremachine,0,1,0,0,0,1,1,1,0,0,0,0,0,0,0,0,1900/01/01 00:00,2012/08/20 18:29,1, ,-27.4452,153.17
364,Wynnum North station,Cameron Parade,Wynnum,Eastern,faremachine,0,1,0,0,0,1,1,1,0,0,0,0,0,0,0,0,1900/01/01 00:00,2012/08/20 18:29,1, ,-27.4372,153.159
365,Yeerongpilly  station,67 Wilkie Street,Yeerongpilly,Brisbane South,faremachine,0,1,0,0,0,1,1,1,0,0,0,0,0,0,0,0,1900/01/01 00:00,2010/10/06 11:11,1, ,-27.5255,153.014
366,Yeronga  station,Fairfield Road,Yeronga,Brisbane South,faremachine,0,1,0,0,0,1,1,1,0,0,0,0,0,0,0,0,1900/01/01 00:00,2010/10/06 11:12,1, ,-27.5178,153.017
367,Zillmere  station,Zillmere Road,Zillmere,Brisbane North,faremachine,0,1,0,0,0,1,1,1,0,0,0,0,0,0,0,0,1900/01/01 00:00,2010/10/06 11:14,1, ,-27.3593,153.037
368,NewsXpress Pacific Fair,"Pacific Fair Shopping Centre, Flinders Street",Broadbeach,Gold Coast,retailer,1,1,1,1,1,1,1,1,1,1,1,1,1,1,0,0,2009/12/18 11:05,2012/11/07 10:38,1, ,-28.0354,153.426
369,Junction News and Casket,"Shop 2, 500 Ipswich Road",Annerley,Brisbane South,retailer,1,0,0,0,0,1,1,1,1,1,1,1,0,0,0,0,2009/12/18 11:07,2010/09/23 11:13,1, ,-27.5112,153.032
370,NewsXpress Lutwyche,"Shop 13, 543 Lutwyche Rd",Lutwyche,Brisbane North,retailer,1,0,0,0,0,1,1,1,1,1,1,1,0,0,0,0,2009/12/18 11:08,2010/10/05 11:32,1, ,-27.422,153.034
371,Sherwood News and Casket Agency,"Shop 4, 686 Sherwood Road",Sherwood (Brisbane City),Brisbane South,retailer,1,0,0,0,0,1,1,1,1,1,1,1,0,0,0,0,2009/12/18 11:13,2012/08/20 18:13,1, ,-27.5324,152.981
372,Macgregor News,"Shop 20, Sunny Park Shopping Centre Cnr Mains Road & McCullough Street",Macgregor,Brisbane South,retailer,1,0,0,0,0,1,1,1,1,1,1,1,0,0,0,0,2009/12/18 11:16,2010/10/05 11:33,1, ,-27.5709,153.065
373,Belvedere News,4 Diamond Street,Cooroy,Sunshine Coast,retailer,1,0,0,0,0,1,1,1,1,1,1,1,0,0,0,0,2009/12/18 11:18,2010/09/30 11:27,1, ,-26.4171,152.912
375,Boondall News and Casket,"Sue's Korner, 2128 Sandgate Road",Boondall,Brisbane North,retailer,1,0,0,0,0,1,1,1,1,1,1,1,0,0,0,0,2009/12/18 11:20,2010/09/23 11:41,1, ,-27.3527,153.06
377,Wishart News,"Civic Fair Shopping Centre, 280 Newnham Rd",Wishart,Brisbane South,retailer,1,0,0,0,0,1,1,1,1,1,1,1,0,0,0,0,2009/12/18 11:24,2010/10/06 10:58,1, ,-27.547,153.092
378,Daw Road Newsagency,"Runcorn Plaza Shopping Centre, Cnr Warrigal & Daw Roads",Runcorn,Brisbane South,retailer,1,1,1,1,1,1,1,1,1,1,1,1,1,1,0,0,2009/12/18 11:25,2013/07/15 14:12,2, ,-27.5885,153.085
380,Village Store Currumbin,66 Teemangum Street,Currumbin,Gold Coast,retailer,1,0,0,0,0,1,1,1,1,1,1,1,0,0,0,0,2009/12/23 12:57,2010/09/30 11:31,1, ,-28.1355,153.489
381,NewsXpress Nerang,74 Nerang-Beaudesert Road,Nerang,Gold Coast,retailer,1,0,0,0,0,1,1,1,1,1,1,1,0,0,0,0,2009/12/23 12:59,2011/01/21 11:03,1, ,-27.9933,153.332
383,Chris' Supa IGA,881 Old Cleveland Road,Carina,Brisbane East,retailer,1,0,0,0,0,1,1,1,1,1,1,1,0,0,0,0,2009/12/23 13:04,2010/09/30 11:12,1, ,-27.4963,153.095
384,Wongabel News,"Shop 2, Wongabel St",Kenmore,Brisbane West,retailer,1,0,0,0,0,1,1,1,1,1,1,1,0,0,0,0,2009/12/23 13:07,2010/10/05 11:16,1, ,-27.509,152.948
385,Woolloongabba News,7 Logan Rd,Woolloongabba,Brisbane South,retailer,1,0,0,0,0,1,1,1,1,1,1,1,0,0,0,0,2009/12/23 13:10,2010/10/06 11:04,1, ,-27.487,153.036
386,Blunder Road Agency,146 Blunder Road,Oxley,Brisbane South,retailer,1,0,0,0,0,1,1,1,1,1,1,1,0,0,0,0,2009/12/23 13:18,2010/10/05 12:26,1, ,-27.5754,152.983
387,IGA Forest Lake,Corner Forest Lake Boulevard and Woogaroo Street,Forest Lake,Brisbane West,retailer,1,0,0,0,0,1,1,1,1,1,1,1,0,0,0,0,2009/12/23 13:30,2010/09/30 11:57,1, ,-27.6112,152.959
388,Varsity Lakes station,Corner Scottsdale Drive and Cormandel Lane,Varsity Lakes,Gold Coast,station,1,1,1,1,1,1,1,1,1,1,1,1,0,0,0,0,2010/01/04 11:23,2010/11/17 11:10,1, ,-28.096499,153.399049
389,Varsity Lakes station,Corner Scottsdale Drive and Cormandel Lane,Varsity Lakes,Gold Coast,faremachine,0,1,0,0,0,1,1,1,0,0,0,0,0,0,0,0,2010/01/04 13:17,2010/11/02 15:16,1, ,-28.094794,153.399531
390,Carina Newsagency,836 Old Cleveland Rd,Carina,Brisbane East,retailer,1,1,1,1,1,1,1,1,1,1,1,1,1,1,0,0,2010/01/07 10:45,2012/11/07 10:42,1, ,-27.4955,153.089
391,Chatswood Hills News,"Shop 34 Chatswood Central, Chatswood Rd",Springwood,Southern ,retailer,1,0,0,0,0,1,1,1,1,1,1,1,0,0,0,0,2010/01/07 10:48,2010/10/06 10:16,1, ,-27.6334,153.139
392,Collingwood Park News,"Shop 1, Redbank Plaza Shopping Centre, Collingwood Drive",Redbank,Western,retailer,1,0,0,0,0,1,1,1,1,1,1,1,0,0,0,0,2010/01/07 10:55,2010/10/05 12:35,1, ,-27.6059,152.868
393,Edens Landing News,Shop 5 125-127 Castile Cresent,Edens Landing,Southern,retailer,1,0,0,0,0,1,1,1,1,1,1,1,0,0,0,0,2010/01/07 10:57,2010/09/30 11:41,1, ,-27.7008,153.169
395,News Extra Central Plaza,"Shop 59, Logan Central Plaza, Wembley Rd",Logan Central,Southern,retailer,1,0,0,0,0,1,1,1,1,1,1,1,0,0,0,0,2010/01/07 11:00,2010/10/05 11:27,1, ,-27.6429,153.114
396,NewsXpress Alexandra Hills,"Shop 9, Alexandra Hills Shopping Centre, Cnr Finucane Road and Cambridge Drive",Alexandra Hills,Eastern,retailer,1,0,0,0,0,1,1,1,1,1,1,1,0,0,0,0,2010/01/07 11:01,2010/09/23 11:12,1, ,-27.5246,153.221
397,NewsXpress Harbour Town,"Shop M2 Harbour Town Shopping Centre, Cnr Brisbane Road & Oxley Drive",Biggera Waters,Gold Coast,retailer,1,1,1,1,1,1,1,1,1,1,1,1,1,1,0,0,2010/01/07 11:02,2012/11/07 10:38,1, ,-27.9338,153.388
398,West End Market News Power,"Shop 13, 69 Boundary St",West End (Brisbane City),Brisbane South,retailer,1,1,1,1,1,1,1,1,1,1,1,1,1,1,0,0,2010/01/07 11:05,2012/11/07 10:47,1, ,-27.4769,153.012
399,Dutton Park station,Railway Terrace,Dutton Park,Brisbane South,station,1,1,1,1,1,1,1,1,1,1,1,1,0,0,0,0,2010/01/09 07:56,2010/09/30 11:38,1,,-27.4998,153.029
400,Lawnton station,Station Road,Lawnton,Northern,station,1,1,1,1,1,1,1,1,1,1,1,1,0,0,0,0,2010/01/09 08:03,2010/10/05 11:24,1, ,-27.2816,152.981
401,Indooroopilly station,Railway Avenue,Indooroopilly,Brisbane West,station,1,1,1,1,1,1,1,1,1,1,1,1,0,0,0,0,2010/01/09 08:04,2010/09/30 12:28,1, ,-27.503,152.976
402,Gympie North station,Sandy Creek Road,Gympie North,Sunshine Coast,station,1,1,1,1,1,1,1,1,1,1,1,1,0,0,0,0,2010/01/09 08:06,2010/09/30 12:18,1, ,-26.1627,152.686
403,Virginia station,4 Wellington Street,Virginia,Brisbane North,station,1,1,1,1,1,1,1,1,1,1,1,1,0,0,0,0,2010/01/09 08:09,2010/10/06 10:48,1, ,-27.3829,153.063
404,Carseldine station,Beams Road,Carseldine,Brisbane North,station,1,1,1,1,1,1,1,1,1,1,1,1,0,0,0,0,2010/01/09 08:11,2010/09/30 11:15,1, ,-27.3476,153.029
405,Milton station ,Milton Road,Milton,Brisbane West,station,1,1,1,1,1,1,1,1,1,1,1,1,0,0,0,0,2010/01/09 08:12,2010/10/05 11:42,1, ,-27.4686,153.006
406,Coorparoo station ,Cavendish Road,Coorparoo,Brisbane East,station,1,1,1,1,1,1,1,1,1,1,1,1,0,0,0,0,2010/01/09 08:13,2010/09/30 11:30,1,,-27.4897,153.055
407,Geebung station,Railway Parade,Geebung,Brisbane North,station,1,1,1,1,1,1,1,1,1,1,1,1,0,0,0,0,2010/01/09 08:14,2010/09/30 12:12,1, ,-27.3689,153.047
408,Sunnybank station,Dixon Street,Sunnybank,Brisbane South,station,1,1,1,1,1,1,1,1,1,1,1,1,0,0,0,0,2010/01/09 08:16,2010/10/06 10:27,1,,-27.5808,153.054
409,Nundah station,Station Street,Nundah,Brisbane North,station,1,1,1,1,1,1,1,1,1,1,1,1,0,0,0,0,2010/01/09 08:17,2010/10/05 12:20,1, ,-27.4009,153.062
410,Graceville station,Honour Avenue,Graceville,Brisbane South,station,1,1,1,1,1,1,1,1,1,1,1,1,0,0,0,0,2010/01/09 08:18,2010/09/30 12:14,1, ,-27.5213,152.976
411,Petrie station ,Station Street,Petrie,Northern,station,1,1,1,1,1,1,1,1,1,1,1,1,0,0,0,0,2010/01/09 08:19,2010/10/05 12:34,1, ,-27.2678,152.982
412,Wynnum Central station,Ronald Street,Wynnum,Eastern,station,1,1,1,1,1,1,1,1,1,1,1,1,0,0,0,0,2010/01/09 08:20,2012/08/20 18:29,1, ,-27.4452,153.17
413,Auchenflower station,Auchenflower Terrace,Auchenflower ,Brisbane West,station,1,1,1,1,1,1,1,1,1,1,1,1,0,0,0,0,2010/01/09 08:22,2010/09/23 11:29,1, ,-27.4761,152.997
414,Loganlea station,Station Road,Loganlea ,Southern,station,1,1,1,1,1,1,1,1,1,1,1,1,0,0,0,0,2010/01/09 08:24,2010/10/05 11:30,1,,-27.671,153.139
415,Goodna station,Ryan Street,Goodna,Western,station,1,1,1,1,1,1,1,1,1,1,1,1,0,0,0,0,2010/01/09 08:25,2010/09/30 12:13,1, ,-27.6088,152.902
416,Morningside station,Waminda Street,Morningside,Brisbane East,station,1,1,1,1,1,1,1,1,1,1,1,1,0,0,0,0,2010/01/09 08:26,2010/10/05 11:51,1, ,-27.4705,153.07
417,Bald Hills station,Cullimore Street,Bald Hills,Brisbane North,station,1,1,1,1,1,1,1,1,1,1,1,1,0,0,0,0,2010/01/09 08:27,2010/09/23 11:29,1, ,-27.3208,153.011
418,Wooloowin station ,Hudson Street,Wooloowin ,Brisbane North,station,1,1,1,1,1,1,1,1,1,1,1,1,0,0,0,0,2010/01/09 08:28,2010/10/06 11:04,1, ,-27.42,153.043
419,Yeronga station,Fairfield Road,Yeronga,Brisbane South,station,1,1,1,1,1,1,1,1,1,1,1,1,0,0,0,0,2010/01/09 08:29,2010/10/06 11:13,1,,-27.5178,153.017
420,Wacol station,Wilruna Street,Wacol ,Western,station,1,1,1,1,1,1,1,1,1,1,1,1,0,0,0,0,2010/01/09 08:30,2010/10/06 10:49,1, ,-27.589,152.924
421,Kuraby station,1370 Beenleigh Road,Kuraby,Southern,station,1,1,1,1,1,1,1,1,1,1,1,1,0,0,0,0,2010/01/09 08:30,2010/10/05 11:22,1,,-27.6049,153.091
422,Cannon Hill station,60 Barracks Road,Cannon Hill,Brisbane East,station,1,1,1,1,1,1,1,1,1,1,1,1,0,0,0,0,2010/01/09 08:31,2010/09/30 11:03,1, ,-27.4653,153.089
423,Salisbury station,Olivia Avenue,Salisbury,Brisbane South,station,1,1,1,1,1,1,1,1,1,1,1,1,0,0,0,0,2010/01/09 08:32,2010/10/05 12:47,1,,-27.5532,153.023
424,Landsborough station,Cribb Street,Landsborough,Sunshine Coast,station,1,1,1,1,1,1,1,1,1,1,1,1,0,0,0,0,2010/01/09 08:33,2010/10/05 11:24,1, ,-26.8084,152.966
425,Coomera station,Railway Reserve 11 Foxwell Road,Coomera,Gold Coast,station,1,1,1,1,1,1,1,1,1,1,1,1,0,0,0,0,2010/01/09 08:34,2010/09/30 11:25,1,,-27.8535,153.318
426,Keperra station,Silvertop Street,Keperra,Brisbane North,station,1,1,1,1,1,1,1,1,1,1,1,1,0,0,0,0,2010/01/09 08:35,2010/10/05 11:20,1, ,-27.409,152.957
427,Gailes station,Wilruna Street,Gailes,Western,station,1,1,1,1,1,1,1,1,1,1,1,1,0,0,0,0,2010/01/09 08:36,2010/09/30 12:07,1, ,-27.6018,152.919
428,Runcorn station,800 Beenleigh Road,Runcorn,Brisbane South,station,1,1,1,1,1,1,1,1,1,1,1,1,0,0,0,0,2010/01/09 08:37,2010/10/05 12:46,1,,-27.5924,153.068
429,East Ipswich station,Merton Street,East Ipswich,Western,station,1,1,1,1,1,1,1,1,1,1,1,1,0,0,0,0,2010/01/09 08:38,2010/09/30 11:40,1, ,-27.61,152.775
430,Banoon station,82 Breton Street,Sunnybank,Brisbane South,station,1,1,1,1,1,1,1,1,1,1,1,1,0,0,0,0,2010/01/09 08:41,2010/10/06 10:26,1,,-27.5763,153.046
431,Alderley station,Railway Place,Alderley,Brisbane North,station,1,1,1,1,1,1,1,1,1,1,1,1,0,0,0,0,2010/01/13 13:42,2010/09/23 11:07,1, ,-27.4227,153
432,Altandi station,125 Mains Road,Sunnybank,Brisbane South,station,1,1,1,1,1,1,1,1,1,1,1,1,0,0,0,0,2010/01/13 13:43,2010/10/06 10:25,1, ,-27.5821,153.063
433,North Greenslopes News,"Shop 1, 589 Logan Road",Greenslopes,Brisbane South,retailer,1,0,0,0,0,1,1,1,1,1,1,1,0,0,0,0,2010/01/13 18:42,2010/09/30 12:16,1, ,-27.5074,153.051
434,Stones Corner Village News,"Shop 16, 405 Logan Road ",Stones Corner,Brisbane South,retailer,1,0,0,0,0,1,1,1,1,1,1,1,0,0,0,0,2010/01/13 18:43,2010/10/06 10:22,1, ,-27.4998,153.046
436,Rainworth News,198 Boundary Road,Bardon,Brisbane North,retailer,1,0,0,0,0,1,1,1,1,1,1,1,0,0,0,0,2010/01/13 18:57,2010/09/23 11:31,1, ,-27.4668,152.987
439,Biota Street News,155 Biota Street,Inala,Brisbane West,retailer,1,0,0,0,0,1,1,1,1,1,1,1,0,0,0,0,2010/01/13 19:06,2010/09/30 12:26,1, ,-27.5874,152.973
440,Noosa Village News,"Shop 12, Noosa Village Shopping Centre, Gibson Road",Noosaville,Sunshine Coast,retailer,1,0,0,0,0,1,1,1,1,1,1,1,0,0,0,0,2010/01/13 19:07,2010/10/05 12:16,1, ,-26.4014,153.065
441,Midway News and Casket,"Shop 2, 544 Oxley Avenue",Redcliffe,Northern,retailer,1,0,0,0,0,1,1,1,1,1,1,1,0,0,0,0,2010/01/13 19:09,2010/10/05 12:37,1, ,-27.2173,153.112
442,Woody Point News,60A King Street,Woody Point,Northern,retailer,1,0,0,0,0,1,1,1,1,1,1,1,0,0,0,0,2010/01/13 19:11,2012/08/03 12:08,2, ,-27.2502,153.104
443,Stewart Road Newsagency,"Shop 6, 17 Stewart Road",Ashgrove,Brisbane North,retailer,1,0,0,0,0,1,1,1,1,1,1,1,0,0,0,0,2010/01/13 19:13,2010/09/23 11:27,1, ,-27.4449,152.992
444,The Fair Casket and Papershop,"Shop 15, Beaudesert Fair, cnr Anna and William Streets",Beaudesert,Southern,retailer,1,0,0,0,0,1,1,1,1,1,1,1,0,0,0,0,2010/01/13 19:16,2010/09/23 11:32,1, ,-27.9891,152.998
445,Ezy Shop,"Shop 2, 108 Wickham Street",Fortitude Valley,Brisbane Central,retailer,1,0,0,0,0,1,1,1,1,1,1,1,0,0,0,0,2010/01/13 19:18,2010/09/30 11:58,1, ,-27.4601,153.032
446,Holland Park News,109 Seville Road,Holland Park,Brisbane South,retailer,1,0,0,0,0,1,1,1,1,1,1,1,0,0,0,0,2010/01/14 07:13,2012/11/05 15:37,1, ,-27.521718,153.074161
447,Kedron Newsagency and Casket Shop,359 Gympie Road (cnr Castle Road),Kedron,Brisbane North,retailer,1,0,0,0,0,1,1,1,1,1,1,1,0,0,0,0,2010/01/14 07:14,2010/10/05 11:12,1, ,-27.4045,153.032
449,Sunshine News,"Shop 15, Mt Gravatt Plaza",Mount Gravatt,Brisbane South,retailer,1,1,0,0,1,1,1,1,1,1,1,1,0,0,0,0,2010/01/14 07:18,2012/08/20 17:54,1, ,-27.5388,153.081
450,Northgate News,111 Ridge Street,Northgate,Brisbane North,retailer,1,0,0,0,0,1,1,1,1,1,1,1,0,0,0,0,2010/01/14 07:19,2010/10/05 12:18,1, ,-27.3903,153.066
452,Sunnybank Hills News,"Sunny Hill Shopping Town, cnr Calam and Compton Roads",Sunnybank Hills,Brisbane South,retailer,1,1,1,1,1,1,1,1,1,1,1,1,1,1,0,0,2010/01/14 07:23,2012/11/07 10:47,1, ,-27.6112,153.054448
453,Nextra Wynnum Plaza,"Shop 20, Wynnum Plaza Shopping Centre, 2021 Wynnum Road",Wynnum West,Eastern,retailer,1,1,0,0,1,1,1,1,1,1,1,1,0,0,0,0,2010/01/14 07:24,2012/09/13 12:06,1, ,-27.4568,153.156
454,Beerwah station,Beerwah Parade,Beerwah,Northern,station,1,1,1,1,1,1,1,1,1,1,1,1,0,0,0,0,2010/01/14 07:27,2010/09/23 11:36,1, ,-26.8582,152.958
455,Bethania station,Station Road,Bethania,Southern,station,1,1,1,1,1,1,1,1,1,1,1,1,0,0,0,0,2010/01/14 07:28,2010/09/23 11:38,1, ,-27.6883,153.158
456,Birkdale station,Napier Street,Birkdale,Eastern,station,1,1,1,1,1,1,1,1,1,1,1,1,0,0,0,0,2010/01/14 07:30,2010/09/23 11:40,1, ,-27.4938,153.218
457,Boondall station,Aberdeen Parade,Boondall,Brisbane North,station,1,1,1,1,1,1,1,1,1,1,1,1,0,0,0,0,2010/01/14 07:30,2010/09/23 11:42,1, ,-27.3455,153.067
458,Airtrain Domestic Terminal,Airport Drive,Airport (Brisbane),Brisbane East,retailer,1,1,0,1,1,1,1,1,1,1,1,1,1,1,0,0,2010/01/14 07:31,2012/11/07 10:25,1,,-27.3852,153.119
459,Airtrain International Terminal,Airport Drive,Airport (Brisbane),Brisbane East,retailer,1,1,0,1,1,1,1,1,1,1,1,1,1,1,0,0,2010/01/14 07:41,2012/11/07 10:26,1,,-27.403,153.109
460,Bundamba station,Mining Street,Bundamba,Western,station,1,1,1,1,1,1,1,1,1,1,1,1,0,0,0,0,2010/01/14 07:44,2010/09/23 12:27,1, ,-27.6075,152.805
461,Buranda station,Gillingham Street,Buranda,Brisbane South,station,1,1,1,1,1,1,1,1,1,1,1,1,0,0,0,0,2010/01/14 07:45,2010/09/23 12:28,1, ,-27.4966,153.04
462,Chelmer station,140 Honour Avenue,Chelmer,Brisbane South,station,1,1,1,1,1,1,1,1,1,1,1,1,0,0,0,0,2010/01/14 07:45,2010/09/30 11:17,1, ,-27.5116,152.973
463,Coopers Plains station,Henley Street,Coopers Plains,Brisbane South,station,1,1,1,1,1,1,1,1,1,1,1,1,0,0,0,0,2010/01/14 07:46,2010/09/30 11:26,1, ,-27.5684,153.036
464,Cooroy station,Elm Street,Cooroy,Sunshine Coast,station,1,1,1,1,1,1,1,1,1,1,1,1,0,0,0,0,2010/01/14 07:47,2010/09/30 11:28,1, ,-26.4187,152.911
465,Deagon station,Adams Street,Deagon,Northern,station,1,1,1,1,1,1,1,1,1,1,1,1,0,0,0,0,2010/01/14 07:47,2010/09/30 11:34,1, ,-27.3273,153.063
466,Dinmore station,Mason Street,Dinmore,Western,station,1,1,1,1,1,1,1,1,1,1,1,1,0,0,0,0,2010/01/14 07:48,2010/09/30 11:36,1, ,-27.5964,152.833
467,Doomben station,Lamington Avenue,Doomben,Brisbane North,station,1,1,1,1,1,1,1,1,1,1,1,1,0,0,0,0,2010/01/14 07:48,2010/09/30 11:36,1, ,-27.4314,153.075
468,Ebbw Vale station,Brisbane Road,Ebbw Vale,Western,station,1,1,1,1,1,1,1,1,1,1,1,1,0,0,0,0,2010/01/14 07:52,2010/09/30 11:40,1, ,-27.6033,152.822
469,Enoggera station,Glenalva Terrace,Enoggera,Brisbane North,station,1,1,1,1,1,1,1,1,1,1,1,1,0,0,0,0,2010/01/14 07:53,2010/09/30 11:53,1, ,-27.4203,152.992
470,Fairfield station,Mildmay Street,Fairfield,Brisbane South,station,1,1,1,1,1,1,1,1,1,1,1,1,0,0,0,0,2010/01/14 07:55,2010/09/30 11:55,1, ,-27.5095,153.028
471,Fruitgrove station,Beenleigh Road,Runcorn,Brisbane South,station,1,1,1,1,1,1,1,1,1,1,1,1,0,0,0,0,2010/01/14 07:55,2010/10/05 12:44,1, ,-27.5983,153.08
472,Gaythorne Station,30 Station Avenue,Enoggera,Brisbane North,station,1,1,1,1,1,1,1,1,1,1,1,1,0,0,0,0,2010/01/14 07:57,2010/09/30 11:54,1, ,-27.4193,152.986
473,Glasshouse Mountains station,Reed Street,Glasshouse Mountains,Northern,station,1,1,1,1,1,1,1,1,1,1,1,1,0,0,0,0,2010/01/14 07:57,2010/09/30 12:12,1, ,-26.8997,152.957
474,Grovely station,Blaker Road,Grovely,Brisbane North,station,1,1,1,1,1,1,1,1,1,1,1,1,0,0,0,0,2010/01/14 07:58,2010/09/30 12:17,1, ,-27.405,152.962
475,Hemmant station,38 Hemmant-Tingalpa Road,Hemmant,Brisbane East,station,1,1,1,1,1,1,1,1,1,1,1,1,0,0,0,0,2010/01/14 07:59,2010/09/30 12:22,1, ,-27.4475,153.127
476,Holmview station,Spanns Road,Beenleigh,Southern,station,1,1,1,1,1,1,1,1,1,1,1,1,0,0,0,0,2010/01/14 08:00,2010/09/23 11:34,1, ,-27.7095,153.187
477,Kingston station,Milky Way Street,Kingston,Southern,station,1,1,1,1,1,1,1,1,1,1,1,1,0,0,0,0,2010/01/14 08:00,2010/10/05 11:21,1, ,-27.6574,153.118
478,Lindum station,Sibley Road,Lindum,Brisbane East,station,1,1,1,1,1,1,1,1,1,1,1,1,0,0,0,0,2010/01/14 08:01,2010/10/05 11:25,1, ,-27.4421,153.145
479,Lota station,Railway Terrace,Lota,Brisbane East,station,1,1,1,1,1,1,1,1,1,1,1,1,0,0,0,0,2010/01/14 08:02,2010/10/05 11:31,1, ,-27.4701,153.188
480,Moorooka station,1151 Ipswich Road,Moorooka,Brisbane South,station,1,1,1,1,1,1,1,1,1,1,1,1,0,0,0,0,2010/01/14 08:03,2010/10/05 11:48,1, ,-27.5355,153.014
481,Murarrie station,Murarrie Road,Murarrie,Brisbane East,station,1,1,1,1,1,1,1,1,1,1,1,1,0,0,0,0,2010/01/14 08:03,2012/08/20 17:57,1, ,-27.4648,153.105
482,Narangba station,448 Burpengary Road,Narangba,Northern,station,1,1,1,1,1,1,1,1,1,1,1,1,0,0,0,0,2010/01/14 08:04,2010/10/05 12:07,1, ,-27.2029,152.961
483,Newmarket station,Abuklea Street,Newmarket,Brisbane North,station,1,1,1,1,1,1,1,1,1,1,1,1,0,0,0,0,2010/01/14 08:05,2010/10/05 12:12,1, ,-27.4328,153.011
484,Norman Park station,Waite Street,Norman Park,Brisbane East,station,1,1,1,1,1,1,1,1,1,1,1,1,0,0,0,0,2010/01/14 08:06,2010/10/05 12:17,1, ,-27.4818,153.062
485,North Boondall station,Aberdeen Street North,Boondall,Brisbane North,station,1,1,1,1,1,1,1,1,1,1,1,1,0,0,0,0,2010/01/14 08:06,2010/09/23 11:43,1, ,-27.339,153.061
486,Nudgee station,Railway Street,Nudgee,Brisbane North,station,1,1,1,1,1,1,1,1,1,1,1,1,0,0,0,0,2010/01/14 08:07,2010/10/05 12:20,1, ,-27.3656,153.084
487,Ormeau station,200 Mirambeena Drive,Pimpama,Southern,station,1,1,1,1,1,1,1,1,1,1,1,1,0,0,0,0,2010/01/14 08:09,2010/10/05 12:34,1, ,-27.7991,153.282
488,Ormiston station,Wellington Street,Ormiston,Eastern,station,1,1,1,1,1,1,1,1,1,1,1,1,0,0,0,0,2010/01/14 08:09,2010/10/05 12:25,1, ,-27.5146,153.256
489,Oxford Park station,Scanlan Road,Mitchelton,Brisbane North,station,1,1,1,1,1,1,1,1,1,1,1,1,0,0,0,0,2010/01/14 08:10,2010/10/05 11:44,1, ,-27.4042,152.968
490,Palmwoods station,Chevallum Road,Palmwoods (Sunshine Coast Regional),Sunshine Coast,station,1,1,1,1,1,1,1,1,1,1,1,1,0,0,0,0,2010/01/14 08:12,2012/08/20 18:02,1, ,-26.6886,152.961
491,Park Road station,Quarry Street,Woolloongabba,Brisbane South,station,1,1,1,1,1,1,1,1,1,1,1,1,0,0,0,0,2010/01/14 08:14,2012/08/20 18:07,1, ,-27.4937,153.031
492,Redbank station,corner Brisbane Terrace and Weedman Street,Redbank,Western,station,1,1,1,1,1,1,1,1,1,1,1,1,0,0,0,0,2010/01/14 08:15,2010/10/05 12:36,1, ,-27.5995,152.872
493,Riverview station,Moggill Ferry Road,Riverview (Ipswich City),Western,station,1,1,1,1,1,1,1,1,1,1,1,1,0,0,0,0,2010/01/14 08:15,2012/08/20 18:11,1, ,-27.595,152.851
494,Rocklea station,Brooke Street,Rocklea,Brisbane South,station,1,1,1,1,1,1,1,1,1,1,1,1,0,0,0,0,2010/01/14 08:16,2010/10/05 12:41,1, ,-27.5447,153.014
495,Sherwood station,Honour Avenue,Sherwood (Brisbane City),Brisbane South,station,1,1,1,1,1,1,1,1,1,1,1,1,0,0,0,0,2010/01/14 08:17,2012/08/20 18:13,1, ,-27.5316,152.98
496,Shorncliffe station,Railway Parade,Shorncliffe,Brisbane North,station,1,1,1,1,1,1,1,1,1,1,1,1,0,0,0,0,2010/01/14 08:17,2010/10/05 12:50,1, ,-27.3269,153.08
497,Sunshine Station,357 Bilsen Road,Geebung,Brisbane North,station,1,1,1,1,1,1,1,1,1,1,1,1,0,0,0,0,2010/01/14 08:18,2012/08/20 18:18,1, ,-27.3753,153.056
498,Taringa station,1 Princess Street,Taringa,Brisbane West,station,1,1,1,1,1,1,1,1,1,1,1,1,0,0,0,0,2010/01/14 08:18,2010/10/06 10:34,1, ,-27.493,152.982
499,Thorneside station,Railway Parade,Thorneside,Eastern,station,1,1,1,1,1,1,1,1,1,1,1,1,0,0,0,0,2010/01/14 08:19,2010/10/06 10:39,1, ,-27.4864,153.193
500,Trinder Park station,Railway Parade,Trinder Park,Southern,station,1,1,1,1,1,1,1,1,1,1,1,1,0,0,0,0,2010/01/14 08:20,2010/10/06 10:44,1, ,-27.6314,153.098
501,Wellington Point station,Station Street,Wellington Point,Eastern,station,1,1,1,1,1,1,1,1,1,1,1,1,0,0,0,0,2010/01/14 08:21,2011/11/22 12:32,1, ,-27.494284,153.241914
502,Wilston station,Newmarket Road,Wilston,Brisbane North,station,1,1,1,1,1,1,1,1,1,1,1,1,0,0,0,0,2010/01/14 08:22,2010/10/06 10:57,1, ,-27.4362,153.019
503,Windsor station,Eildon Road,Windsor,Brisbane North,station,1,1,1,1,1,1,1,1,1,1,1,1,0,0,0,0,2010/01/14 08:22,2010/10/06 10:58,1, ,-27.4352,153.029
504,Wynnum station,Thorn Street,Wynnum,Eastern,station,1,1,1,1,1,1,1,1,1,1,1,1,0,0,0,0,2010/01/14 08:23,2010/10/06 11:07,1, ,-27.4397,153.166
505,Wynnum North station,Cameron Parade,Wynnum,Eastern,station,1,1,1,1,1,1,1,1,1,1,1,1,0,0,0,0,2010/01/14 08:24,2012/08/20 18:30,1, ,-27.4372,153.159
506,Yeerongpilly station,67 Wilkie Street,Yeerongpilly,Brisbane South,station,1,1,1,1,1,1,1,1,1,1,1,1,0,0,0,0,2010/01/14 08:24,2010/10/06 11:11,1, ,-27.5255,153.014
507,South Bank station,Grey Street,South Brisbane,Brisbane Central,station,1,1,1,1,1,1,1,1,1,1,1,1,0,1,0,0,2010/01/15 11:18,2012/11/07 10:54,1, ,-27.4818,153.023
508,Sunbus Customer Service Counter,"Sunshine Plaza, Horton Parade",Maroochydore,Sunshine Coast,retailer,1,0,0,0,0,1,0,0,1,1,1,1,0,0,0,0,2010/01/19 16:56,2010/10/05 11:36,1, ,-26.6549,153.09
509,IGA Acacia Ridge,28 Elizabeth Street,Acacia Ridge,Brisbane South,retailer,1,0,0,0,0,1,1,1,1,1,1,1,0,0,0,0,2010/01/20 07:48,2010/09/22 13:12,1, ,-27.5902,153.027
510,Suncorp Centre Newsagency,"Shop 3, Cnr Albert and Turbot Street",Brisbane (city),Brisbane Central,retailer,1,0,0,0,0,1,1,1,1,1,1,0,0,0,0,0,2010/01/20 08:00,2012/09/11 10:02,2, ,-27.4673,153.023
511,Ferny Hills News & Casket,"Shop 11, 126 Ferny Way",Ferny Hills,Brisbane North,retailer,1,0,0,0,0,1,1,1,1,1,1,1,0,0,0,0,2010/01/20 08:05,2010/09/30 11:56,1, ,-27.4003,152.939
513,Moorooka News,1131 Ipswich Rd,Moorooka,Brisbane South,retailer,1,0,0,0,0,1,1,1,1,1,1,1,0,0,0,0,2010/01/20 08:14,2010/10/05 11:48,1, ,-27.535,153.014
514,Oxley Newsagency,94 Cook Street,Oxley,Brisbane South,retailer,1,0,0,0,0,1,1,1,1,1,1,1,0,0,0,0,2010/01/20 08:21,2011/01/24 12:02,1,,-27.5527,152.974
516,Wynnum Station News,181 Florence St,Wynnum,Brisbane East,retailer,1,0,0,0,0,1,1,1,1,1,1,1,0,0,0,0,2010/01/20 08:26,2010/10/06 11:08,1, ,-27.4455,153.171
517,NewsXpress Albany Creek,Corner Old Northern Rd and Albany Forest Drive,Albany Creek,Brisbane North,retailer,1,0,0,0,0,1,1,1,1,1,1,1,0,0,0,0,2010/01/20 08:37,2012/02/16 14:03,1, ,-27.3581,152.969
518,Video Ezy,"Bribie Island Shopping Centre, 241 Goodwin Drive",Bribie Island,Northern,retailer,1,1,1,1,1,1,1,1,1,1,1,1,1,1,0,0,2010/01/20 08:39,2012/11/07 10:50,1, ,-27.0651,153.157
519,Logan Road News,1303 Logan Road,Mount Gravatt,Brisbane South,retailer,1,0,0,0,0,1,1,1,1,1,1,1,0,0,0,0,2010/01/20 08:42,2012/08/20 17:53,1, ,-27.5341,153.075
520,Salisbury News,230 Lilian Avenue,Salisbury,Brisbane South,retailer,1,0,0,0,0,1,1,1,1,1,1,1,0,0,0,0,2010/01/20 08:44,2010/10/05 12:46,1, ,-27.5546,153.033
521,Thornlands News & Casket,"Crystal Waters Shopping Centre, 51 Island Outlook Avenue",Thornlands,Eastern,retailer,1,0,0,0,0,1,1,1,1,1,1,1,0,0,0,0,2010/01/20 08:47,2010/10/06 10:39,1, ,-27.558,153.266
522,Cat and Fiddle News,"Shop 7, 9 Morley Street",Toowong,Brisbane West,retailer,1,0,0,0,0,1,1,1,1,1,1,1,0,0,0,0,2010/01/20 08:49,2012/09/17 12:56,2, ,-27.4779,152.989
523,North Wavell News,151 Hamilton Road,Wavell Heights,Brisbane North,retailer,1,0,0,0,0,1,1,1,1,1,1,1,0,0,0,0,2010/01/20 08:51,2010/10/06 10:52,1, ,-27.3893,153.05
524,Mater Hill busway station,"Stanley Street, opposite Mater Public Hospital",South Brisbane,Brisbane Central,busway,1,1,0,0,0,1,1,1,1,0,0,0,0,0,0,0,2010/01/22 13:12,2010/10/05 12:56,1, ,-27.4842,153.028
525,King George Square busway station,"corner Ann and Roma Streets, access also available from Adelaide Street",Brisbane (city),Brisbane Central,busway,1,1,0,0,0,1,1,1,1,0,0,0,0,0,0,0,2010/01/22 13:15,2010/09/23 12:02,1, ,-27.4669,153.022
527,South Bank Busway station,corner of Tribune Street and Colchester Streets,South Brisbane,Brisbane Central,busway,1,1,0,0,0,1,1,1,1,0,0,0,0,0,0,0,2010/01/22 13:19,2012/03/14 15:44,1, ,-27.4807,153.022
529,Woolloongabba busway station,corner of Main Street and Stanley Streets,Woolloongabba,Brisbane South,busway,1,1,0,0,0,1,1,1,1,0,0,0,0,0,0,0,2010/01/22 13:21,2010/10/06 11:04,1, ,-27.486,153.035
530,Griffith University busway station,access to Plaza from roundabout at bottom of Sports Road ,Mount Gravatt,Brisbane South,busway,1,1,0,0,0,1,1,1,1,0,0,0,0,0,0,0,2010/01/22 13:23,2012/08/20 17:52,1, ,-27.5466,153.064
531,Upper Mount Gravatt busway station,McGregor Street,Upper Mount Gravatt,Brisbane South,busway,1,1,0,0,0,1,1,1,1,0,0,0,0,0,0,0,2010/01/22 13:24,2012/08/20 18:23,1, ,-27.5634,153.081
532,Highland Park News,104 Alexander Drive (corner Explorers Way),Highland Park,Gold Coast,retailer,1,0,0,0,0,1,1,1,1,1,1,1,0,0,0,0,2010/01/22 13:25,2010/09/30 12:24,1, ,-27.5217,153.074
533,Cultural Centre busway station,corner of Grey and Melbourne Streets,South Brisbane,Brisbane Central,busway,1,1,0,0,0,1,1,1,1,0,0,0,0,0,0,0,2010/01/22 13:26,2012/03/16 15:57,1, ,-27.4732,153.019
534,Buranda busway station,O'Keefe Street,Buranda,Brisbane South,busway,1,1,0,0,0,1,1,1,1,0,0,0,0,0,0,0,2010/01/22 13:27,2010/09/23 12:28,1, ,-27.4971,153.039
535,RBWH busway station,Bowen Bridge Road,Herston,Brisbane North,busway,1,1,0,0,0,1,1,1,1,0,0,0,0,0,0,0,2010/01/22 13:28,2010/09/30 12:23,1, ,-27.4474,153.029
536,QUT Kelvin Grove busway station,between University and Victoria Park Golf Course,Kelvin Grove,Brisbane North,busway,1,1,0,0,0,1,1,1,1,0,0,0,0,0,0,0,2010/01/22 13:30,2010/10/05 11:13,1, ,-27.452,153.019
538,Terrace News,"Morris Towers, 149 Wickham Terrace ",Spring Hill,Brisbane North,retailer,1,0,0,0,0,1,1,1,1,1,1,1,0,0,0,0,2010/01/22 13:31,2010/10/05 13:00,1, ,-27.4646,153.025
539,Chermside Bus Interchange,corner Gympie and Hamilton Roads,Chermside,Brisbane North,busother,1,1,0,0,0,1,1,1,1,0,0,0,0,0,0,0,2010/01/22 13:31,2011/10/25 14:06,1, ,-27.3854,153.031
540,Sunnybank News and Casket Agency,"Shop 22 Sunnybank Plaza, Mains Road",Sunnybank,Brisbane South,retailer,1,1,1,1,1,1,1,1,1,1,1,1,1,1,0,0,2010/01/22 13:33,2012/11/07 10:46,1, ,-27.5706,153.062
541,Lucky Gold Convenience,3073 Gold Coast Highway,Surfers Paradise,Gold Coast,retailer,1,0,0,0,0,1,1,1,1,1,1,1,0,0,0,0,2010/01/22 13:35,2012/09/25 13:06,2, ,-28.0051,153.428
542,Clark's Logan City Bus ticket kiosk Loganholme,"Logan Hyperdome, corner Pacific Highway and Bryants Road",Loganholme,Southern,retailer,1,0,0,0,0,1,0,0,1,1,1,1,0,0,0,0,2010/01/22 15:30,2012/02/16 14:03,1,,-27.6606,153.173
543,Clark's Logan City Bus ticket kiosk Springwood,Springwood bus station,Springwood,Southern,retailer,1,0,0,0,0,1,0,0,1,1,1,1,0,0,0,0,2010/01/22 16:35,2012/02/16 14:04,1,,-27.6144,153.126
544,Target News,"Shop 2 Central Buranda, Ipswich Road",Buranda,Brisbane South,retailer,1,0,0,0,0,1,1,1,1,1,1,1,0,0,0,0,2010/01/28 09:08,2010/09/23 12:29,1,,-27.5005,153.035
548,Peregian Beach Newsagency,6 Kingfisher Drive,Peregian Beach,Sunshine Coast,retailer,1,0,0,0,0,1,1,1,1,1,1,1,0,0,0,0,2010/01/28 09:14,2010/10/05 12:34,1,,-26.4812,153.096
550,Turbot Street News,375 Turbot Street,Spring Hill,Brisbane North,retailer,1,0,0,0,0,1,1,1,1,1,1,1,0,0,0,0,2010/01/28 09:19,2012/09/06 15:00,2,,-27.4622,153.03
551,IGA Express Upper Mt Gravatt,1722 Logan Road,Upper Mount Gravatt,Brisbane South,retailer,1,0,0,0,0,1,1,1,1,1,1,1,0,0,0,0,2010/01/28 09:20,2012/08/20 18:23,1,,-27.5481,153.081
552,Garden City bus interchange,South East Freeway near Garden City Shopping Centre (access via current bus interchange),Upper Mount Gravatt,Brisbane South,busother,1,1,0,0,0,1,1,1,1,0,0,0,0,0,0,0,2010/01/29 15:04,2012/08/20 18:24,1, ,-27.5631,153.081
554,Cannon Hill Friendly Grocer,73 Molloy Road,Cannon Hill,Brisbane East,retailer,1,0,0,0,0,1,1,1,1,1,1,1,0,0,0,0,2010/02/05 16:21,2010/09/30 11:02,1,,-27.471,153.083
555,Spar Express,503 St Pauls Terrace,Fortitude Valley,Brisbane Central,retailer,1,0,0,0,0,1,1,1,1,1,1,1,0,0,0,0,2010/02/05 16:22,2010/09/30 12:05,1,,-27.454,153.034
557,Logandale Plaza News,"Shop 10, Logandale Plaza, Cnr Beenleigh-Redland Bay Road and Logandale Boulevard",Loganholme,Southern,retailer,1,0,0,0,0,1,1,1,1,1,1,1,0,0,0,0,2010/02/05 16:24,2011/02/11 13:31,1,,-27.6735,153.211
558,Rosewood News,12 John Street,Rosewood,Western,retailer,1,0,0,0,0,1,1,1,1,1,1,1,0,0,0,0,2010/02/05 16:25,2010/10/05 12:42,1,,-27.6419,152.593
560,Shaw Road Newsagency,"Shop 3, 208-216 Shaw Road ",Wavell Heights,Brisbane North,retailer,1,0,0,0,0,1,1,1,1,1,1,1,0,0,0,0,2010/02/05 16:30,2012/09/13 08:18,2,,-27.4,153.048
562,Nibble Coffee and Convenience Store,83 Hardgrave Road,West End (Brisbane City),Brisbane South,retailer,1,0,0,0,0,1,1,1,1,1,1,1,0,0,0,0,2010/02/05 16:32,2012/08/20 18:25,1,,-27.4827,153.007
563,Kings Circle News / Caboolture Officesmart,287 King Street,Caboolture,Northern,retailer,1,0,0,0,0,1,1,1,1,1,1,1,0,0,0,0,2010/02/16 14:18,2010/09/30 10:59,1,,-27.076,152.929
564,Newsxpress Gumdale,"Shop 4, 696 New Cleveland Road",Gumdale,Eastern,retailer,1,0,0,0,0,1,1,1,1,1,1,1,0,0,0,0,2010/02/16 14:20,2011/01/25 14:49,1,,-27.4905,153.153
566,Wishart Village News,"Shop 3, 590 Mt Gravatt-Capalaba Road",Wishart,Brisbane South,retailer,1,0,0,0,0,1,1,1,1,1,1,1,0,0,0,0,2010/02/16 14:28,2010/10/06 10:59,1,,-27.5483,153.108
567,Bond University Bookshop,"Shop 5-6, Commercial Centre, Bond University",Robina,Gold Coast,retailer,1,0,0,0,0,1,1,1,1,1,1,1,0,0,0,0,2010/02/16 17:54,2011/01/18 09:31,1,,-28.0465,153.409
568,Nambour News and Casket,"Centenary Square, Currie St",Nambour,Sunshine Coast,retailer,1,0,0,0,0,1,1,1,1,1,1,1,0,0,0,0,2010/02/16 17:56,2010/10/05 12:05,1,,-26.6278,152.959
569,Newsxpress Noosaville,"Shop 2, 199 Gympie Terrace ",Noosaville,Sunshine Coast,retailer,1,0,0,0,0,1,1,1,1,1,1,1,0,0,0,0,2010/02/16 17:58,2010/10/05 12:15,1,,-26.3986,153.062
570,Nextra Beenleigh Marketplace,"Shop 31, Beenleigh Marketplace, George Street",Beenleigh,Southern,retailer,1,0,0,0,0,1,1,1,1,1,1,1,0,0,0,0,2010/02/19 08:50,2010/09/23 11:35,1,,-27.7162,153.201
571,Greenbank Plaza News,"Shop 3, 15 Pub Lane",Greenbank,Southern,retailer,1,0,0,0,0,1,1,1,1,1,1,1,0,0,0,0,2010/02/19 08:51,2010/09/30 12:15,1,,-27.7383,152.983
572,Yeronga News,"Shop 3, Yeronga Village, 429 Fairfield Road",Yeronga,Brisbane South,retailer,1,0,0,0,0,1,1,1,1,1,1,1,0,0,0,0,2010/02/19 08:52,2010/10/06 11:13,1,,-27.5163,153.017
573,Metropolitan South Institute of TAFE - Mt Gravatt Campus,"Customer Service Centre, F block, 1030 Cavendish Road",Mount Gravatt,Brisbane South,retailer,1,0,0,0,0,1,1,1,1,1,0,1,0,0,0,0,2010/03/02 09:27,2012/08/20 17:53,1,,-27.5253,153.091
574,Metropolitan South Institute of TAFE - Loganlea Campus,"Customer Service Centre, B Block, Armstrong Road",Meadowbrook,Southern,retailer,1,0,0,0,0,1,1,1,1,1,0,1,0,0,0,0,2010/03/02 09:29,2012/09/17 11:38,2,,-27.6706,153.144
575,Metropolitan South Institute of TAFE - Alexandra Hills Campus,"Customer Service Centre, A block, Windemere Road",Alexandra Hills,Eastern,retailer,1,0,0,0,0,1,1,1,1,1,0,1,0,0,0,0,2010/03/02 09:32,2011/01/21 11:02,1,,-27.5311,153.216
576,Kallangur Fair News,1473 Anzac Avenue,Kallangur,Northern,retailer,1,0,0,0,0,1,1,1,1,1,1,1,0,0,0,0,2010/03/02 16:42,2010/10/05 11:11,1,,-27.2501,152.999
577,Walloon News,12 Queen Street ,Walloon,Western,retailer,1,0,0,0,0,1,1,1,1,1,1,1,0,0,0,0,2010/03/02 16:46,2010/10/06 10:50,1,,-27.6061,152.665
578,Nextra Peninsula Fair News,"Peninsula Fair Shopping Centre, Anzac Ave",Kippa-Ring,Northern,retailer,1,1,0,0,1,1,1,1,1,1,1,1,0,0,0,0,2010/03/02 16:48,2012/09/13 12:13,1, ,-27.2256,153.088
579,Night Owl ,660 Brunswick Street,New Farm,Brisbane Central,retailer,1,1,0,0,1,1,1,1,1,1,1,1,0,0,0,0,2010/03/02 16:50,2012/06/28 14:58,1,,-27.4632,153.042
580,St Lucia Supermarket,185  Sir Fred Schonell Drive,St Lucia,Brisbane West,retailer,1,0,0,0,0,1,1,1,1,1,1,1,0,0,0,0,2010/03/02 16:51,2011/02/17 10:44,1,,-27.4944,153.003
581,Supanews Strathpine,"Westfield Shopping Centre, Gympie Road",Strathpine,Northern,retailer,1,1,0,0,1,1,1,1,1,1,1,1,0,0,0,0,2010/03/02 16:53,2012/08/06 18:50,1,,-27.3069,152.993
587,Cooroy Newsagency,28 Maple Street,Cooroy,Sunshine Coast,retailer,1,0,0,0,0,1,1,1,1,1,1,1,0,0,0,0,2010/03/04 16:31,2010/09/30 11:28,1,,-26.4177,152.91
588,Tewantin Newsagency,107 Poinciana Avenue,Tewantin,Sunshine Coast,retailer,1,1,0,0,1,1,1,1,1,1,1,1,0,0,0,0,2010/03/04 16:32,2012/06/28 14:57,1,,-26.3921,153.038
589,Mansfield News and Casket Agency,22 Aminya Street,Mansfield,Brisbane South,retailer,1,0,0,0,0,1,1,1,1,1,1,1,0,0,0,0,2010/03/05 09:07,2012/09/17 11:35,2,,-27.5391,153.099
590,Camp Hill Newsagency,569 Old Cleveland Road,Camp Hill,Brisbane East,retailer,1,0,0,0,0,1,1,1,1,1,1,1,0,0,0,0,2010/03/05 09:09,2010/09/30 11:02,1,,-27.493,153.075
591,Stanley Road News,182 Stanley Road,North Carina,Brisbane East,retailer,1,0,0,0,0,1,1,1,1,1,1,1,0,0,0,0,2010/03/05 09:10,2012/09/17 11:09,1,,-27.488,153.088
592,Tobacco Station Stones Corner,307 Logan Road,Stones Corner,Brisbane South,retailer,1,0,0,0,0,1,1,1,1,1,1,1,0,0,0,0,2010/03/05 09:11,2010/10/06 10:22,1,,-27.499,153.045
593,Nextra Orion Newsagency,"Shop 29, 1 Main Street Orion Springfield",Springfield,Brisbane West,retailer,1,1,0,0,1,1,1,1,1,1,1,1,0,0,0,0,2010/03/09 12:58,2010/12/21 09:06,1,,-27.6776,152.902
594,Gold Coast Tourism Visitor Information Booth,2 Cavill Avenue,Surfers Paradise,Gold Coast,retailer,1,1,1,1,1,1,1,1,1,1,1,1,1,1,0,0,2010/03/10 14:35,2012/11/07 10:39,1,,-28.0023,153.431
597,Mt Gravatt East Post Office,"Shop 3, 8 Carrara Street",Mount Gravatt East,Brisbane South,retailer,1,0,0,0,0,1,1,1,1,1,1,1,0,0,0,0,2010/03/12 16:09,2012/08/20 17:55,1,,-27.5239,153.081
598,Waterford Plaza News,"Waterford Plaza, corner Kingston and Taigum Roads ",Waterford,Southern,retailer,1,0,0,0,0,1,1,1,1,1,1,1,0,0,0,0,2010/03/12 16:10,2010/10/06 10:52,1,,-27.6924,153.136
599,Nextra Burleigh Heads,"Stockland Burleigh Shopping Centre, West Burleigh Road",Burleigh Heads,Gold Coast,retailer,1,1,1,1,1,1,1,1,1,1,1,1,1,1,0,0,2010/03/18 15:21,2012/11/07 10:39,1,,-28.096893,153.442285
600,BP Cooroy Supermart,28 Elm Street,Cooroy,Sunshine Coast,retailer,1,0,0,0,0,1,1,1,1,1,1,1,0,0,0,0,2010/03/18 15:23,2010/09/30 11:27,1,,-26.4184,152.912
601,Supanews Green Square,"Shop 7 Green Square North Tower, 515 St Paul's Terrace",Fortitude Valley,Brisbane Central,retailer,1,1,0,0,1,1,1,1,1,1,1,1,0,0,0,0,2010/03/18 15:25,2011/01/18 09:35,1, ,-27.4536,153.035
602,Nextra Kenmore Village News,"Shop 50, Kenmore Village, Brookfield Road",Kenmore,Brisbane West,retailer,1,0,0,0,0,1,1,1,1,1,1,1,0,0,0,0,2010/03/18 15:29,2010/10/05 11:14,1,,-27.5072,152.94
604,Lucky 7 South Bank,"Shop 4, 166 Grey Street",South Bank,Brisbane Central,retailer,1,0,0,0,0,1,1,1,1,1,1,1,0,0,0,0,2010/03/18 15:35,2011/01/24 11:52,1,,-27.4781,153.021
608,Victoria Point West Licensed Post Office,"Shop 54, Victoria Point Shopping Centre, corner Cleveland Redland Bay Road and Bunker Road",Victoria Point,Eastern,retailer,1,0,0,0,0,1,1,1,1,1,1,1,0,0,0,0,2010/03/18 15:49,2010/10/06 10:48,1,,-27.5854,153.281
609,Deagon News,138 Braun Street,Deagon,Brisbane North,retailer,1,0,0,0,0,1,1,1,1,1,1,1,0,0,0,0,2010/03/19 16:32,2010/09/30 11:33,1,,-27.3324,153.059
610,NewsXpress Arana Hills,"Shop 13B, Kmart Plaza, corner Patricks Road and Dawsons Parade",Arana Hills,Brisbane North,retailer,1,0,0,0,0,1,1,1,1,1,1,1,0,0,0,0,2010/03/19 16:34,2010/09/23 11:15,1,,-27.3973,152.961
611,City Convenience Store,26 Felix Street,Brisbane (city),Brisbane Central,retailer,1,0,0,0,0,1,1,1,1,1,1,1,0,0,0,0,2010/03/29 08:52,2010/09/23 11:59,1,,-27.4705,153.03
614,Moffat Beach News,6 Seaview Terrace,Moffat Beach,Sunshine Coast,retailer,1,0,0,0,0,1,1,1,1,1,1,1,0,0,0,0,2010/03/29 08:56,2010/10/05 11:45,1,,-26.7899,153.142
615,Zone News,747 Deception Bay Road,Rothwell,Northern,retailer,1,0,0,0,0,1,1,1,1,1,1,1,0,0,0,0,2010/03/29 08:58,2012/12/20 15:09,2,,-27.2126,153.046
616,Surfside Newsagency,10 North Street Woorim,Bribie Island,Northern,retailer,1,0,0,0,0,1,1,1,1,1,1,1,0,0,0,0,2010/03/29 09:00,2011/01/05 15:12,1,,-27.0683,153.203
618,Alderley Licensed Post Office,34-40 South Pine Road,Alderley,Brisbane North,retailer,1,0,0,0,0,1,1,1,1,1,1,1,0,0,0,0,2010/03/29 09:28,2010/09/23 11:06,1,,-27.4234,153
620,IGA Express Cannon Hill,965 Wynnum Road,Cannon Hill,Brisbane East,retailer,1,0,0,0,0,1,1,1,1,1,1,1,0,0,0,0,2010/03/29 09:43,2010/09/30 11:03,1,,-27.4689,153.09
621,Colmslie Plaza News,38 Junction Road,Morningside,Brisbane East,retailer,1,0,0,0,0,1,1,1,1,1,1,1,0,0,0,0,2010/03/29 09:45,2010/10/05 11:50,1,,-27.4653,153.079
622,Given Terrace Newsagency,Shop 1/209 Given Terrace,Paddington,Brisbane North,retailer,1,0,0,0,0,1,1,1,1,1,1,1,0,0,0,0,2010/03/29 09:46,2010/10/05 12:28,1,,-27.4616,153.006
623,Stones Corner News,347 Logan Road,Stones Corner,Brisbane South,retailer,1,1,1,1,1,1,1,1,1,1,1,1,1,1,0,0,2010/03/29 09:47,2012/11/07 10:46,1,,-27.4992,153.045
624,Broadcast News,"Shop 1, 39 Sherwood Road",Toowong,Brisbane West,retailer,1,1,0,0,1,1,1,1,1,1,1,1,0,0,0,0,2010/03/29 09:48,2012/06/28 14:58,1,,-27.4854,152.992
625,Wilston News & Post,"Shop 1, 99 Kedron Brook Road",Wilston,Brisbane North,retailer,1,0,0,0,0,1,1,1,1,1,1,1,0,0,0,0,2010/03/29 10:57,2010/10/06 10:56,1,,-27.4322,153.02
626,Goodes Newsagency,771 Stanley Street,Woolloongabba,Brisbane South,retailer,1,0,0,0,0,1,1,1,1,1,1,1,0,0,0,0,2010/03/29 10:58,2010/10/06 11:02,1,,-27.4864,153.034
627,IGA Express Woolloongabba,14 Annerley Road,Woolloongabba,Brisbane South,retailer,1,0,0,0,0,1,1,1,1,1,1,1,0,0,0,0,2010/03/29 11:16,2010/10/06 11:03,1,,-27.4875,153.029
628,News on Kameruka,corner Beaudesert Road and Kameruka Street,Calamvale,Brisbane South,retailer,1,0,0,0,0,1,1,1,1,1,1,1,0,0,0,0,2010/03/31 12:11,2010/09/30 11:00,1,,-27.624,153.049
630,Logan City News,"Shop 66, Logan City Centre, corner Kingston Road and Wembley Road",Logan Central,Southern,retailer,1,0,0,0,0,1,1,1,1,1,1,1,0,0,0,0,2010/03/31 12:16,2010/10/05 11:27,1,,-27.6427,153.119
632,Nobby Beach Newsagency,"Shop 1, 2239 Gold Coast Highway",Mermaid Beach,Gold Coast,retailer,1,0,0,0,0,1,1,1,1,1,1,1,0,0,0,0,2010/03/31 12:19,2010/10/05 11:38,1,,-28.0587,153.438
633,Kwikimart (a Friendly Grocer Store),"Shop 69, 158 Moray Street",New Farm,Brisbane Central,retailer,1,0,0,0,0,1,1,1,1,1,1,1,0,0,0,0,2010/03/31 12:22,2010/10/05 12:11,1,,-27.4701,153.043
634,Palm Beach Newsagency,"Shop 5A, 10 Fifth Avenue",Palm Beach,Gold Coast,retailer,1,0,0,0,0,1,1,1,1,1,1,1,0,0,0,0,2010/03/31 12:23,2010/10/05 12:29,1,,-28.1223,153.472
635,Palmdale News,2120 Logan Road,Upper Mount Gravatt,Brisbane South,retailer,1,0,0,0,0,1,1,1,1,1,1,1,0,0,0,0,2010/03/31 12:24,2012/08/20 18:23,1,,-27.5612,153.083
636,The Hair Room,"Shop 1, 102 Commercial Road",Teneriffe,Brisbane North,retailer,1,0,0,0,0,1,1,1,1,1,1,1,0,0,0,0,2010/04/01 08:58,2013/07/12 09:39,2,,-27.4539,153.047
637,Night Owl Wickham Street,"Chopstix Arcade, 210 Wickham Street",Fortitude Valley,Brisbane Central,retailer,1,0,0,0,0,1,1,1,1,1,1,1,0,0,0,0,2010/04/14 10:36,2011/01/21 13:07,1,,-27.4574,153.033
639,Norfolk News,"Norfolk Village Shopping Centre, 174-178 Pascoe Road",Ormeau,Southern,retailer,1,0,0,0,0,1,1,1,1,1,1,1,0,0,0,0,2010/04/15 15:06,2010/10/05 12:25,1,,-27.7639,153.245
640,Supanews Garden City Lower Level,"Garden City (lower level, opposite Coles), Logan Road",Mount Gravatt,Brisbane South,retailer,1,1,0,0,1,1,1,1,1,1,1,1,0,0,0,0,2010/04/22 11:19,2012/08/20 17:54,1,,-27.5634,153.082
641,Welcome Express Convenience Store,243 Brunswick Street,Fortitude Valley,Brisbane Central,retailer,1,0,0,0,0,1,1,1,1,1,1,1,0,0,0,0,2010/04/30 14:06,2010/09/30 12:07,1,,-27.4571,153.033
642,Pit Stop News and Supermarket,3313 Surfers Paradise Boulevard,Surfers Paradise,Gold Coast,retailer,1,0,0,0,0,1,1,1,1,1,1,1,0,0,0,0,2010/05/06 10:03,2010/10/06 10:33,1,,-27.9935,153.428
643,Spring Hill News,"Shop 3, 74 Little Edward Street",Spring Hill,Brisbane North,retailer,1,0,0,0,0,1,1,1,1,1,1,1,0,0,0,0,2010/05/06 10:04,2010/10/05 13:00,1,,-27.4611,153.024
644,Supanews Nundah Village,"Shop 9, 1193 Sandgate Road",Nundah,Brisbane North,retailer,1,0,0,0,0,1,1,1,1,1,1,1,0,0,0,0,2010/05/06 10:05,2010/10/05 12:24,1,,-27.4028,153.061
645,Commercial Road News,52 Commercial Road,Fortitude Valley,Brisbane Central,retailer,1,0,0,0,0,1,1,1,1,1,1,1,0,0,0,0,2010/05/06 10:06,2010/09/30 11:58,1,,-27.4533,153.044
646,Supanews Bracken Ridge,"Bracken Ridge Plaza Shopping Centre, Corner Telegraph and Norris Roads",Bracken Ridge,Brisbane North,retailer,1,0,0,0,0,1,1,1,1,1,1,1,0,0,0,0,2010/05/06 10:09,2013/05/30 12:18,1,,-27.330219,153.026505
647,7-Eleven Kensington Hills,1 Sovereign Avenue,Bray Park (Moreton Bay Regional),Northern,retailer,1,1,0,0,1,1,1,1,1,1,1,1,0,0,0,0,2010/05/21 11:00,2012/09/25 11:33,1,,-27.2971,152.975
649,Broadbeach News and Casket,2703 Gold Coast Highway,Broadbeach,Gold Coast,retailer,1,0,0,0,0,1,1,1,1,1,1,1,0,0,0,0,2010/05/21 13:18,2011/02/11 13:30,1, ,-28.0292,153.431
650,Jindalee News,"Shop 5, 86 Curragundi Road",Jindalee,Brisbane West,retailer,1,0,0,0,0,1,1,1,1,1,1,1,0,0,0,0,2010/05/21 13:20,2010/10/05 11:11,1,,-27.5347,152.935
651,Middle Park News,"Park Village Shopping Centre, 92 Horizon Drive",Middle Park,Brisbane West,retailer,1,0,0,0,0,1,1,1,1,1,1,1,0,0,0,0,2010/05/21 13:23,2010/10/05 11:39,1,,-27.5543,152.922
652,Mary Ryan's,40 Park Road,Milton,Brisbane West,retailer,1,0,0,0,0,1,1,1,1,1,1,1,0,0,0,0,2010/05/21 13:24,2010/10/05 11:40,1,,-27.4713,153.005
653,Norman Park Central News,"Shop 1, 183 Bennetts Road",Norman Park,Brisbane East,retailer,1,0,0,0,0,1,1,1,1,1,1,1,0,0,0,0,2010/05/21 13:27,2010/10/05 12:16,1, ,-27.4759,153.066
655,Westside Story Newsagency,85 Boundary Street,West End (Brisbane City),Brisbane South,retailer,1,0,0,0,0,1,1,1,1,1,1,1,0,0,0,0,2010/05/21 13:30,2012/08/20 18:25,1,,-27.4778,153.013
656,Terrica Place News,140 Creek Street,Brisbane (city),Brisbane Central,retailer,1,0,0,0,0,1,1,1,1,1,1,1,0,0,0,0,2010/06/01 16:17,2012/09/17 11:20,2,,-27.4666,153.028
657,Eight Mile Plains News,"Shop 8, 218 Padstow Road ",Eight Mile Plains,Brisbane South,retailer,1,0,0,0,0,1,1,1,1,1,1,1,0,0,0,0,2010/06/11 11:59,2012/08/29 18:13,2,,-27.5748,153.087
658,Freechoice Fortitude Valley,292 Brunswick Street Mall,Fortitude Valley,Brisbane Central,retailer,1,0,0,0,0,1,1,1,1,1,1,1,0,0,0,0,2010/06/11 12:00,2012/09/17 11:23,2,,-27.4578,153.034
659,Night Owl Brunswick Street,"Shop 2B, Valley Mall, 312-318 Brunswick Street",Fortitude Valley,Brisbane Central,retailer,1,0,0,0,0,1,1,1,1,1,1,1,0,0,0,0,2010/06/22 14:07,2011/01/21 13:07,1,,-27.458,153.035
660,Supanews Carseldine,"Carseldine Central, 735 Beams Road",Carseldine,Brisbane North,retailer,1,0,0,0,0,1,1,1,1,1,1,1,0,0,0,0,2010/07/07 10:59,2012/02/16 14:06,1,,-27.3453,153.012
661,Redland Heights News,30 Cypress Street,Redland Bay,Eastern,retailer,1,0,0,0,0,1,1,1,1,1,1,1,0,0,0,0,2010/07/07 11:00,2010/10/05 12:38,1,,-27.6284,153.298
663,Skylark News,59 Skylark Street,Inala,Brisbane West,retailer,1,0,0,0,0,1,1,1,1,1,1,1,0,0,0,0,2010/07/07 11:07,2010/09/30 12:27,1,,-27.6014,152.98
664,Newmarket Post Office,"Shop 123, 400 Newmarket Road",Newmarket,Brisbane North,retailer,1,0,0,0,0,1,1,1,1,1,1,1,0,0,0,0,2010/07/28 15:52,2010/10/05 12:11,1,,-27.4371,153.007
665,Banyo station,268 St Vincents Road,Banyo,Brisbane North,station,1,1,1,1,1,1,1,1,1,1,1,1,0,0,0,0,2010/08/03 10:54,2010/09/23 11:30,1,,-27.3749,153.077
666,IGA Tingalpa,11/1534 Wynnum Road,Tingalpa,Eastern,retailer,1,0,0,0,0,1,1,1,1,1,1,1,0,0,0,0,2010/08/23 09:26,2012/11/29 11:22,2,,-27.4743,153.126
667,Lucky Charm Noosa Fair,"Shop 1069A, Noosa Civic, 28 eenie Creek Road",Noosaville,Sunshine Coast,retailer,1,0,0,0,0,1,1,1,1,1,1,1,0,0,0,0,2010/08/23 09:27,2013/08/01 14:45,1,,-26.4158,153.049
668,NewsXpress Jimboomba,"Shop 10, Junction Shopping Centre, Cusack Lane",Jimboomba,Southern,retailer,1,0,0,0,0,1,1,1,1,1,1,1,0,0,0,0,2010/08/23 09:30,2011/07/13 10:49,1,,-27.830644,153.026739
669,7-Eleven Southbank TAFE,"Southbank TAFE, 5/97 Merivale Street",South Brisbane,Brisbane Central,retailer,1,1,0,0,1,1,1,1,1,1,1,1,0,0,0,0,2010/08/30 09:39,2012/01/23 15:15,1,,-27.4797,153.019
670,Supanews North Lakes,Shop 1104/5 Westfield North Lakes,North Lakes,Northern,retailer,1,0,0,0,0,1,1,1,1,1,1,1,0,0,0,0,2010/09/03 09:01,2012/10/29 09:44,1,,-27.2398,153.02
671,Noosa Junction Newsagency,Shop 1/26 Sunshine Beach Rd,Noosa Heads,Sunshine Coast,retailer,1,0,0,0,0,1,1,1,1,1,1,1,0,0,0,0,2010/09/03 09:03,2012/03/13 10:30,1,,-26.398385,153.091521
672,Clock Corner Convenience Store & Take-Away,13/521 Beams Rd,Carseldine,Brisbane North,retailer,1,0,0,0,0,1,1,1,1,1,1,1,0,0,0,0,2010/09/08 10:30,2010/09/30 11:16,1,,-27.3482,153.028
673,Gatton Plaza Newsagency ,7/8 Plaza Shopping Centre Spencer St,Gatton,Western,retailer,1,0,0,0,0,1,1,1,1,1,1,1,0,0,0,0,2010/09/10 11:46,2010/11/02 14:29,1,,-27.558271,152.279529
674,Brisbane Convenience Store,183 Ann St,Brisbane (city),Brisbane Central,retailer,1,0,0,0,0,1,1,1,1,1,1,1,0,0,0,0,2010/09/13 12:04,2012/09/11 10:02,2,,-27.4671,153.025
675,Night Owl West End,"Shop 1, 158 Boundary St",West End (Brisbane City),Brisbane South,retailer,1,0,0,0,0,1,1,1,1,1,1,1,0,0,0,0,2010/09/13 13:53,2012/08/20 18:26,1,,-27.4814,153.012
676,Night Owl Highgate Hill,"Shop 2, 34 B Gladstone Road",Highgate Hill,Brisbane South,retailer,1,0,0,0,0,1,1,1,1,1,1,1,0,0,0,0,2010/09/13 13:56,2010/09/30 12:24,1,,-27.4845,153.02
677,Narangba Valley News,"Shop 6, 212 Young Road",Narangba,Northern,retailer,1,0,0,0,0,1,1,1,1,1,1,1,0,0,0,0,2010/09/17 12:52,2010/11/02 14:30,1,,-27.173203,152.936888
678,Friendly Grocer Broadbeach,"Shop 10, Belair Retail Centre, Gold Coast Highway,Broadbeach",Broadbeach,Gold Coast,retailer,1,0,0,0,0,1,1,1,1,1,1,1,0,0,0,0,2010/09/24 13:09,2010/11/02 13:00,1,,-28.035828,153.431953
679,Valley Centre News,"Valley Metro Centre, 230 Brunswick St",Fortitude Valley,Brisbane Central,retailer,1,0,0,0,0,1,1,1,1,1,1,1,0,0,0,0,2010/09/28 16:36,2012/08/28 14:04,1,,-27.456839,153.03302
680,Get Hummered,"10 Transit Centre, Beach Rd",Surfers Paradise,Gold Coast,retailer,1,0,0,0,0,1,1,1,1,1,1,1,0,0,0,0,2010/09/28 16:38,2010/11/02 14:27,1,,-28.002304,153.426632
681,Labrador Park Newsagency,100 Brisbane Road,Labrador,Gold Coast,retailer,1,0,0,0,0,1,1,1,1,1,1,1,0,0,0,0,2010/10/08 16:21,2010/11/02 14:33,1,,-27.931558,153.377048
682,NewsXpress Deception Bay,"Shop 16 Deception Bay SC, Bay Avenue",Deception Bay,Northern,retailer,1,1,1,1,1,1,1,1,1,1,1,1,1,1,0,0,2010/10/26 16:27,2012/11/07 10:51,1,,-27.19383,153.029327
683,Coorparoo News,"Shop 6, Coorparoo Convenience Centre, 208 Old Cleveland Road",Coorparoo,Brisbane East,retailer,1,1,0,0,1,1,1,1,1,1,1,1,0,0,0,0,2010/10/29 09:39,2012/06/28 14:59,1,,-27.497168,153.054055
684,Swan Newsagency,"Shop 137 Sunshine Plaza, Horton Parade",Maroochydore,Sunshine Coast,retailer,1,1,1,1,1,1,1,1,1,1,1,1,1,1,0,0,2010/10/29 09:42,2012/11/07 10:41,1,,-26.654877,153.090593
686,NewsXpress Robina,"Shop 1, Market Hall Robina Town Centre",Robina,Gold Coast,retailer,1,1,1,1,1,1,1,1,1,1,1,1,0,0,0,0,2010/10/29 13:32,2012/03/26 16:16,2,,-28.077625,153.382973
687,Loganholme Bus Interchange,Cnr Service Rd and Mandew St,Loganholme,Southern,busother,1,1,0,0,0,1,1,1,1,0,0,0,0,0,0,0,2010/11/19 14:23,2010/11/22 16:49,1,,-27.660298,153.173541
688,Eight Mile Plains Busway,Eight Mile Plains Busway Station,Eight Mile Plains,Brisbane South,busway,1,1,0,0,0,1,1,1,1,0,0,0,0,0,0,0,2010/11/19 14:48,2010/11/22 16:45,1,,-27.57848,153.101739
689,Springwood Busway Station,Springwood Busway Station,Springwood,Southern,busway,1,1,0,0,0,1,1,1,1,0,0,0,0,0,0,0,2010/11/19 14:51,2010/11/25 08:44,1,,-27.614579,153.125323
690,Greenslopes Busway,Barnsdale Place,Greenslopes,Brisbane South,busway,1,1,0,0,0,1,1,1,1,0,0,0,0,0,0,0,2010/11/19 14:53,2010/11/24 16:00,1,,-27.510946,153.040493
691,PA Hospital Busway,"PA Hospital, Ipswich Road",Woolloongabba,Brisbane South,busway,1,1,0,0,0,1,1,1,1,0,0,0,0,0,0,0,2010/11/19 14:58,2010/11/29 14:29,1,,-27.496863,153.033977
692,Boggo Road Busway,Quarry Street,Woolloongabba,Brisbane South,busway,1,1,0,0,0,1,1,1,1,0,0,0,0,0,0,0,2010/11/19 15:00,2010/11/29 14:43,1,,-27.492742,153.030513
693,Carindale Bus Interchange,Westfield Carindale Shopping Centre,Carindale,Brisbane East,busway,1,1,0,0,0,1,1,1,1,0,0,0,0,0,0,0,2010/11/19 15:17,2010/11/26 13:01,1,,-27.503369,153.102971
694,Cannon Hill Bus Interchange,"Cannon Hill Shopping Centre, Creek Road",Cannon Hill,Brisbane East,busway,1,1,0,0,0,1,1,1,1,0,0,0,0,0,0,0,2010/11/19 15:19,2010/11/29 14:23,1,,-27.470755,153.096887
695,Holland Park Busway,Holland Park Busway Station,Holland Park,Brisbane South,busway,1,1,0,0,0,1,1,1,1,0,0,0,0,0,0,0,2010/11/19 15:21,2010/11/30 15:15,1,,-27.523145,153.054915
696,Normanby Busway,Normanby Busway Station,Red Hill (Brisbane City),Brisbane North,busway,1,1,0,0,0,1,1,1,1,0,0,0,0,0,0,0,2010/11/19 15:27,2012/08/20 18:09,1,,-27.458927,153.01509
697,Roma Street Busway,Roma Street Busway Station,Brisbane (city),Brisbane Central,busway,1,1,0,0,0,1,1,1,1,0,0,0,0,0,0,0,2010/11/19 15:29,2010/12/01 15:13,1,,-27.465434,153.017253
698,Royal Childrens Hospital Busway,Royal Childrens Hospital,Herston,Brisbane North,busway,1,1,0,0,0,1,1,1,1,0,0,0,0,0,0,0,2010/11/19 15:32,2010/12/03 14:43,1,,-27.449758,153.025944
699,Toombul Bus Interchange,Toombul Shopping Centre,Toombul,Brisbane North,busway,1,1,0,0,0,1,1,1,1,0,0,0,0,0,0,0,2010/11/19 15:33,2010/12/06 08:48,1,,-27.408392,153.060114
700,Aspley Bus Interchange,"Pick 'n Pay Hypermarket, Albany Creek Rd",Aspley,Brisbane North,busother,1,1,0,0,0,1,1,1,1,0,0,0,0,0,0,0,2010/11/19 15:35,2010/12/07 15:00,1,,-27.363956,153.012848
701,Brookside Bus Interchange,Brookside Shopping Centre,Mitchelton,Brisbane North,busway,1,1,0,0,0,1,1,1,1,0,0,0,0,0,0,0,2010/11/19 15:38,2010/12/09 15:58,1,,-27.410027,152.978784
702,UQ (Chancellor),University of Queensland,St Lucia,Brisbane West,busother,1,1,0,0,0,1,1,1,1,0,0,0,0,0,0,0,2010/11/19 15:40,2012/01/18 15:45,1,,-27.498036,153.010862
703,Bribie Island Park n Ride,"Cnr Village and Victory Road, Bongaree",Bribie Island,Northern,busother,1,1,0,0,0,1,1,1,1,0,0,0,0,0,0,0,2010/11/19 15:45,2010/12/21 09:31,1,,-27.06552,153.158635
704,Lockyer Valley Tourist Information Centre,Lake Apex Drive,Gatton,Western,retailer,1,0,0,0,0,1,1,1,1,1,1,1,0,0,0,0,2010/11/23 14:48,2010/11/23 14:48,1,,-27.570008,152.270886
705,Regents Park News,2/3374 Beaudesert Road,Browns Plains,Brisbane South,retailer,1,0,0,0,0,1,1,1,1,1,1,1,0,0,0,0,2010/11/23 14:50,2010/11/23 14:50,1,,-27.666518,153.034598
706,NewsXpress Gatton,6/6 Railway Street,Gatton,Western,retailer,1,0,0,0,0,1,1,1,1,1,1,1,0,0,0,0,2010/11/23 14:51,2011/01/21 11:04,1,,-27.555952,152.277841
707,NewsXpress Manly,"Shop 9 Mayfair on Manly SC, Cnr Manly and Hargreaves Rd",Manly West,Eastern,retailer,1,0,0,0,0,1,1,1,1,1,1,1,0,0,0,0,2010/11/25 15:39,2010/11/25 16:08,1,,-27.475372,153.154778
708,University of the Sunshine Coast,"Student Central, Building C - Sunshine Coast University",Sippy Downs,Sunshine Coast,retailer,1,1,1,1,1,1,1,1,1,1,1,1,0,1,0,0,2010/12/10 13:27,2012/11/07 10:52,1,,-27.677583,152.90182
709,Newsxpress Toowong Village,9 Sherwood Road,Toowong,Brisbane West,retailer,1,0,0,0,0,1,1,1,1,1,1,1,0,0,0,0,2010/12/20 16:52,2010/12/20 16:52,1,,-27.48533,152.99154
711,Winston Glades News,"Shop 9, Ash Street",Flinders View,Western,retailer,1,0,0,0,0,1,1,1,1,1,1,1,0,0,0,0,2010/12/20 16:56,2012/09/17 12:58,1,,-27.65422,152.751467
713,Pomona Newsagency,10 Memorial Avenue,Pomona,Sunshine Coast,retailer,1,0,0,0,0,1,1,1,1,1,1,1,0,0,0,0,2011/01/05 10:23,2011/01/10 16:20,1,,-26.366181,152.85505
714,Eumundi Village Pharmacy,1 / 2 - 6 Ethridge Street,Eumundi,Sunshine Coast,retailer,1,0,0,0,0,1,1,1,1,1,1,1,0,0,0,0,2011/01/05 10:25,2011/01/10 15:35,1,,-26.475572,152.950648
715,Buderim Newsagency,2/67 Burnett Street,Buderim,Sunshine Coast,retailer,1,0,0,0,0,1,1,1,1,1,1,1,0,0,0,0,2011/01/05 10:35,2011/01/24 16:23,1,,-26.687894,153.048923
716,BP Yandina Food Stop,24 Farrell Street,Yandina,Sunshine Coast,retailer,1,0,0,0,0,1,1,1,1,1,1,1,0,0,0,0,2011/01/05 10:36,2011/01/21 10:51,1,,-26.559987,152.956586
718,Dockside Convenience Store,"Shop 5, 35 Ferry Street",Kangaroo Point,Brisbane East,retailer,1,0,0,0,0,1,1,1,1,1,1,1,0,0,0,0,2011/01/05 10:41,2011/01/24 16:25,1,,-27.472558,153.038964
719,Currimundi News,Cnr Nicklin Way and Bellara Drive,Currimundi,Sunshine Coast,retailer,1,0,0,0,0,1,1,1,1,1,1,1,0,0,0,0,2011/01/05 10:43,2011/01/24 16:24,1,,-26.773831,153.124299
720,Gem News and Casket,18 Racecourse Road,Hamilton,Brisbane North,retailer,1,0,0,0,0,1,1,1,1,1,1,1,0,0,0,0,2011/01/05 10:45,2011/01/24 16:26,1,,-27.438428,153.064185
721,NewsXpress The Pines,"Shop 29 The Pines Shopping Centre, Guineas Creek Road",Elanora,Gold Coast,retailer,1,0,0,0,0,1,1,1,1,1,1,1,0,0,0,0,2011/01/05 10:48,2011/01/24 16:27,1,,-28.135343,153.469333
722,Riverside Ferry Terminal,Eagle Street,Brisbane (city),Brisbane Central,retailer,1,1,1,1,1,1,1,1,1,1,1,1,1,1,0,0,2011/01/05 16:58,2012/11/07 10:36,1,,-27.466974,153.030874
724,Daisy Hill News,"Shop 7, Cnr Daisy Hill Rd and Cupania Street",Daisy Hill ,Southern,retailer,1,0,0,0,0,1,1,1,1,1,1,1,0,0,0,0,2011/01/10 15:46,2011/01/24 10:57,1,,-27.642944,153.153712
725,River City Convenience,"Shop 133, Ipswich City Square",Ipswich,Western,retailer,1,0,0,0,0,1,1,1,1,1,1,1,0,0,0,0,2011/01/10 15:56,2012/09/17 11:24,2,,-27.613443,152.759027
726,Foodworks Salisbury,Shop 4 / 660 Toohey Road,Salisbury,Brisbane South,retailer,1,0,0,0,0,1,1,1,1,1,1,1,0,0,0,0,2011/01/10 16:04,2011/01/10 16:04,1,,-27.545804,153.039488
727,Burpengary News,"Shop 22 Burpengary Plaza, Station Road",Burpengary,Northern,retailer,1,0,0,0,0,1,1,1,1,1,1,1,0,0,0,0,2011/01/18 09:45,2011/01/31 15:47,1,,-27.154338,152.97469
728,Nextra Carindale City News,"Shop 1069, Lower Level Westfield Carindale, Creek Road",Carindale,Brisbane East,retailer,1,0,0,0,0,1,1,1,1,1,1,1,0,0,0,0,2011/01/18 09:48,2011/01/25 14:19,1,,-27.5025,153.102
729,Richlands Rail Station,Progress Road,Richlands,Brisbane West,station,1,1,1,1,1,1,1,1,1,1,1,1,0,0,0,0,2011/01/21 13:24,2011/01/21 13:24,1,,-27.596442,152.946558
730,Richlands Rail Station,Progress Road,Richlands,Brisbane West,faremachine,0,1,0,0,0,1,1,1,1,1,1,1,0,0,0,0,2011/01/21 13:26,2011/01/21 13:26,1,,-27.596442,152.946558
732,Nextra Booval Fair,Booval Fair Shopping Centre,Booval,Western,retailer,1,0,0,0,0,1,1,1,1,1,1,1,0,0,0,0,2011/02/01 16:29,2013/07/05 13:28,2,,-27.614038,152.789163
733,Runaway Bay News,Shop 53 Runaway Bay Village Shopping Centre,Runaway Bay,Gold coast,retailer,1,0,0,0,0,1,1,1,1,1,1,1,0,0,0,0,2011/02/01 16:32,2011/02/23 10:55,1,,-27.912639,153.401878
734,Queen Street Busway,"Lower Level Myer Centre, Queen Street",Brisbane (city),Brisbane Central,busway,1,1,0,0,0,1,1,1,1,0,0,0,0,0,0,0,2011/02/09 16:20,2011/02/09 16:23,1,,-27.470582,153.025309
735,Christines Corner Newsagency,5/221 Christine Avenue,Varsity Lakes,Gold Coast,retailer,1,0,0,0,0,1,1,1,1,1,1,1,0,0,0,0,2011/02/17 10:26,2011/02/17 10:27,1,,-28.085385,153.42483
736,Co-Op Bookshop ACU,"Aust Catholic University, Nudgee Rd",Banyo,Brisbane North,retailer,1,0,0,0,0,1,1,1,1,1,1,1,0,0,0,0,2011/02/18 09:46,2011/03/14 16:38,1,,-27.379966,153.148047
737,Co-Op Bookshop GU Logan,"Griffith Uni Logan Campus, University Drive",Meadowbrook,Southern,retailer,1,0,0,0,0,1,1,1,1,1,1,1,0,0,0,0,2011/02/18 09:48,2011/03/14 16:41,1,,-27.664398,153.148047
738,Co-Op Bookshop GU Mt Gravatt,"Griffith Uni Mt Gravatt Campus, Messines Ridge Rd",Mount Gravatt,Brisbane South,retailer,1,0,0,0,0,1,1,1,1,1,1,1,0,0,0,0,2011/02/18 09:50,2012/08/20 17:52,1,,-27.543289,153.052821
739,Co-Op Bookshop GU Nathan,"Griffith Uni Nathan Campus, Kessels Road",Nathan,Brisbane South,retailer,1,0,0,0,0,1,1,1,1,1,1,1,0,0,0,0,2011/02/18 09:53,2012/09/17 12:54,2,,-27.550346,153.052821
740,Co-Op Bookshop QCM ,"Qld Conservatorium of Music, 140 Grey Street",South Brisbane,Brisbane South,retailer,1,0,0,0,0,1,1,1,1,1,1,1,0,0,0,0,2011/02/18 09:56,2011/03/14 16:46,1,,-27.477569,153.021132
741,Co-Op Bookshop SCU,"Southern Cross Uni, Southern Cross Drive",Bilinga,Gold Coast,retailer,1,0,0,0,0,1,1,1,1,1,1,1,0,0,0,0,2011/02/18 09:59,2012/09/17 11:05,2,,-28.167515,153.518035
742,UQ Lakes,"UQ Lakes Busway, Eleanor Schonell Bridge",St Lucia,Brisbane West,busway,1,1,0,0,0,1,1,1,1,0,0,0,0,0,0,0,2011/02/25 10:37,2012/01/18 15:52,1,This machine has been temporarily removed to allow upgrade works to occur.,-27.498036,153.017093
743,Russell Island News,Shop 2 / 29 High Street,Russell Island,Southern,retailer,1,1,0,0,1,1,1,1,1,1,1,1,0,0,0,0,2011/03/07 13:00,2013/06/06 17:10,1,,-27.648659,153.382003
744,Night Owl Palm Beach,1160 Gold Coast Highway,Palm Beach,Gold Coast,retailer,1,0,0,0,0,1,1,1,1,1,1,1,0,0,0,0,2011/03/08 09:58,2011/03/08 10:06,1,,-28.119505,153.471363
745,Chapel Hill News,8/620 Moggill Rd,Chapel Hill,Brisbane West,retailer,1,0,0,0,0,1,1,1,1,1,1,1,0,0,0,0,2011/03/08 10:18,2011/03/08 10:18,1,,-27.505594,152.960821
746,Co-op Bookshop UQ Gatton,"Building 8123, Morrison Hall, Inner Ring Road",Gatton,Western,retailer,1,0,0,0,0,1,1,1,1,1,1,1,0,0,0,0,2011/03/14 16:50,2011/03/14 16:50,1,,-27.555737,152.337285
747,Co-op Bookshop UQ Ipswich,"Building 12, Room 108, Salisbury Road",Ipswich,Western,retailer,1,0,0,0,0,1,1,1,1,1,1,1,0,0,0,0,2011/03/14 16:51,2011/03/14 16:51,1,,-27.628126,152.756307
748,Co-op Bookshop USC,"University of Sunshine Coast, Sippy Downs Drive",Sippy Downs,Sunshine Coast,retailer,1,0,0,0,0,1,1,1,1,1,1,1,0,0,0,0,2011/03/14 16:59,2012/09/17 11:01,2,,-26.7188,153.061661
750,Co-op Bookshop MSIT Logan,50-68 Armstrong Road,Meadowbrook,Southern,retailer,1,0,0,0,0,1,1,1,1,1,1,1,0,0,0,0,2011/03/15 10:58,2012/09/17 11:37,2,,-27.671333,153.146804
751,South Bank Visitor Centre,"South Bank House, Ground Floor, Stanley Street Plaza",South Bank,Brisbane Central,retailer,1,0,0,0,0,1,1,1,1,1,1,1,1,0,0,0,2011/05/10 13:32,2012/01/17 16:54,1,,-27.47966,153.02326
752,Nextra Capalaba Park News,"Capalaba Park Shopping Centre, Redland Bay Rd",Capalaba,Eastern,retailer,1,1,0,0,1,1,1,1,1,1,1,1,0,0,0,0,2011/06/23 16:17,2011/07/13 10:51,1,,-27.524102,153.191099
753,Langlands Busway,Cnr Old Cleveland Rd and Mains Road,Coorparoo,Brisbane East,busway,1,1,0,0,0,1,1,1,1,0,0,0,0,0,0,0,2011/09/05 12:45,2011/09/05 12:51,1,,-27.498635,153.050149
754,Stones Corner Busway,Gladys Street,Coorparoo,Brisbane East,busway,1,1,0,0,0,1,1,1,1,0,0,0,0,0,0,0,2011/09/05 12:58,2011/09/05 13:11,1,,-27.497963,153.0452
755,7 Eleven Landmark Resort,"Shop 4 Landmark Resort, The Esplanade",Mooloolaba,Sunshine Coast,retailer,1,1,0,0,1,1,1,1,1,1,1,1,0,0,0,0,2011/09/09 10:17,2011/09/09 12:22,1,,-26.680953,153.120477
756,Burstall Avenue News,"Belmont Shopping Plaza, Cnr Burstall Ave and Belmont Road",Belmont,Brisbane East,retailer,1,1,0,0,1,1,1,1,1,1,1,1,0,0,0,0,2011/10/10 16:20,2011/10/11 14:54,1,,-27.484423,153.126052
757,Gold Coast Tourist Shuttle Desk,Gold Coast Airport,Airport (Gold Coast - Coolangatta),Gold Coast,retailer,1,1,1,1,1,1,1,1,1,1,1,1,1,1,0,0,2011/10/18 14:51,2012/11/07 10:28,1,,-28.16626,153.512886
758,IGA East Brisbane,33 Lytton Road,East Brisbane,Brisbane East,retailer,1,1,0,0,1,1,1,1,1,1,1,1,0,0,0,0,2012/01/05 16:54,2012/01/05 16:57,1,,-27.47948,153.04446
759,NewsXpress Westpoint,"Westpoint Plaza, Browns Plains Road",Browns Plains,Brisbane South,retailer,1,1,1,1,1,1,1,1,1,1,1,1,1,1,0,0,2012/01/11 12:10,2012/11/07 10:44,1,,-27.660573,153.040452
760,Noosa Junction Bus Interchange,Sunshine Beach Rd and Lanyana Way,Noosa Heads,Sunshine Coast,busother,1,1,0,0,0,1,1,1,1,0,0,0,0,0,0,0,2012/01/18 15:04,2012/01/18 15:04,1,,-26.399192,153.093399
761,Clayfield News,"Shop 1, 727 Sandgate Road",Clayfield,Brisbane North,retailer,1,0,0,0,0,1,1,1,1,1,1,1,0,0,0,0,2012/02/21 17:27,2012/09/17 11:22,2,,-27.418622,153.055776
762,Gold Coast Tourism Coolangatta,"Shop 22, Showcase On The Beach, Griffith Street",Coolangatta (Gold Coast City),Gold Coast,retailer,1,0,0,0,0,1,1,1,1,1,1,1,1,0,0,0,2012/02/27 12:25,2012/11/29 11:34,2,,-28.168032,153.537911
763,Caloundra Newsagency,72 Bulcock Street,Caloundra,Sunshine Coast,retailer,1,1,1,1,1,1,1,1,1,1,1,1,0,0,0,0,2012/03/13 10:19,2012/05/10 12:21,0,,-26.80477,153.131188
764,Alexpress Mart,98-110 Alexandra Parade,Alexandra Headland,Sunshine Coast,retailer,1,0,0,0,0,1,1,1,1,1,1,1,0,0,0,0,2012/03/13 10:24,2012/03/13 10:24,1,,-26.66553,153.105607
765,Noosa Plaza Newsagency,"Shop 3, Noosa Junction Plaza",Noosa Heads,Sunshine Coast,retailer,1,0,0,0,0,1,1,1,1,1,1,1,0,0,0,0,2012/03/13 10:28,2012/08/20 17:59,1,,-26.39659,153.089624
766,Nextra Robina,"Shop 1, Market Hall, Robina Town Centre",Robina,Gold Coast,retailer,1,1,1,1,1,1,1,1,1,1,1,1,1,1,0,0,2012/04/19 10:28,2012/11/07 10:41,1,,-28.077625,153.382973
767,Terry White Chemist Bellbowrie,"Shop 29 Bellbowrie Shopping Plaza, Birkin Road",Bellbowrie,Brisbane west,retailer,1,1,0,0,1,1,1,1,1,1,1,1,0,0,0,0,2012/05/08 10:09,2012/05/08 10:09,1,,-27.561953,152.886854
768,Nextra Mt Ommaney,"Mt Ommaney Shopping Centre, 171 Dandenong Road",Mount Ommaney,Brisbane West,retailer,1,1,1,1,1,1,1,1,1,1,1,1,1,1,0,0,2012/05/11 12:03,2012/11/07 10:48,1,,-27.54897,152.938354
769,Caloundra Newsagency,72 Bulcock Street,Caloundra,Sunshine Coast,retailer,1,1,1,1,1,1,1,1,1,1,1,1,1,1,0,0,2012/05/14 17:38,2012/11/07 10:42,1,,-26.80477,153.131188
770,NewsXpress Middle Park,Shop 27-28 Park Village Shops,Middle Park,Brisbane West,retailer,1,0,0,0,0,1,1,1,1,1,1,1,0,0,0,0,2012/05/28 08:50,2012/05/28 11:11,1,,-27.55529,152.923292
771,Samford Village Newsagency,Cnr Main Street and Mary Ring Drive,Samford Village,Brisbane North,retailer,1,0,0,0,0,1,1,1,1,1,1,1,0,0,0,0,2012/05/28 11:12,2012/05/28 11:12,1,,-27.372756,152.886495
772,Pacific News and Casket,4 Bulcock Street,Caloundra,Sunshine Coast,retailer,1,0,0,0,0,1,1,1,1,1,1,1,0,0,0,0,2012/05/28 11:13,2012/05/28 11:13,1,,-26.804983,153.135425
773,Lucky 7 Edward Street,"Shop 2, 160 Edward Street",Brisbane,Brisbane Central,retailer,1,0,0,0,0,1,1,1,1,1,1,1,0,0,0,0,2012/07/02 09:14,2012/07/02 09:14,1,,-27.469461,153.027863
774,Brook News and Casket,"Brookside Shopping Centre, Osborne Road",Mitchelton,Brisbane North,retailer,1,0,0,0,0,1,1,1,1,1,1,1,0,0,0,0,2012/07/02 09:16,2012/07/02 09:22,1,,-27.409867,152.9788
775,Wellington Point News,"Shop 2, 368 Main Road",Wellington Point,Eastern,retailer,1,0,0,0,0,1,1,1,1,1,1,1,0,0,0,0,2012/07/10 08:30,2012/07/10 08:30,1,,-27.485334,153.237809
776,Wellington Point Post Office,"Shop 3, 405 Main Road",Wellington Point,Eastern,retailer,1,0,0,0,0,1,1,1,1,1,1,1,0,0,0,0,2012/07/10 08:40,2012/07/11 09:50,1,,-27.487198,153.238894
777,Foodworks Heathwood,137 Parkwood Drive,Heathwood,Brisbane West,retailer,1,0,0,0,0,1,1,1,1,1,1,1,0,0,0,0,2012/07/10 08:42,2012/07/10 08:42,1,,-27.637003,152.986997
778,Moorooka Foodstore and News,419 Beaudesert Road,Moorooka,Brisbane South,retailer,1,0,0,0,0,1,1,1,1,1,1,1,0,0,0,0,2012/07/10 08:43,2012/07/10 08:43,1,,-27.543033,153.020663
779,Lucky 7 Southport,40 Nerang Street,Southport,Gold Coast,retailer,1,0,0,0,0,1,1,1,1,1,1,1,0,0,0,0,2012/07/31 16:34,2012/07/31 16:37,1,,-27.967624,153.414542
780,Smilemart Southport,99 Scarborough Street,Southport,Gold Coast,retailer,1,0,0,0,0,1,1,1,1,1,1,1,0,0,0,0,2012/07/31 16:37,2012/07/31 16:37,1,,-27.966594,153.414091
781,Kingston News,"Kingston Palms Shopping Centre, Cnr Kingston Road and Juers Street",Kingston,Southern,retailer,1,0,0,0,0,1,1,1,1,1,1,1,0,0,0,0,2012/07/31 16:42,2012/07/31 16:42,1,,-27.660306,153.117566
782,Enoggera Newsagency,"Shop 2B, 318 Wardell Street",Enoggera,Brisbane North,retailer,1,0,0,0,0,1,1,1,1,1,1,1,0,0,0,0,2012/07/31 16:46,2012/07/31 16:46,1,,-27.422652,152.990315
783,Town Centre News,"Shop 56, Inala Plaza, 156 Inala Avenue",Inala,Brisbane West,retailer,1,0,0,0,0,1,1,1,1,1,1,1,0,0,0,0,2012/08/28 13:28,2012/08/28 13:28,1,,-27.59889,152.97408
784,NewsXpress Kawana,"Shop 353 Kawana Shopping World, Point Cartwright Drive",Kawana,Sunshine Coast,retailer,1,1,1,1,1,1,1,1,1,1,1,1,1,1,0,0,2012/09/05 16:37,2012/11/07 10:42,1,,-26.70291,153.128403
785,Australia Fair News,"Shop G112 Australia Fair Shopping Centre, Marine Parade",Southport,Gold Coast,retailer,1,1,1,1,1,1,1,1,1,1,1,1,1,1,0,0,2012/09/05 16:40,2012/11/07 10:40,1,,-27.968746,153.415815
786,Matilda Broadbeach,75 T.E. Peter's Drive ,Broadbeach,Gold Coast,retailer,1,0,0,0,0,1,1,1,1,1,1,1,0,0,0,0,2012/09/06 12:03,2012/09/06 12:03,1,,-28.026559,153.420625
787,Tweed Heads Information Centre,Corner Wharf & Bay Streets,Tweed Heads,Gold Coast,retailer,1,0,0,0,0,1,1,1,1,1,1,1,0,0,0,0,2012/09/06 12:05,2012/09/06 12:05,1,,-28.171,153.543691
788,Surfers Paradise Newsagency,"Shop 11, 2 Elkhorn Avenue",Surfers Paradise,Gold Coast,retailer,1,0,0,0,0,1,1,1,1,1,1,1,0,0,0,0,2012/09/06 12:07,2012/09/06 12:07,1,,-27.999278,153.430115
789,Campus Bookshop,The Link Building (G07) Griffith University Gold Coast Campus ,Southport,Gold Coast,retailer,1,0,0,0,0,1,1,1,1,1,1,1,0,0,0,0,2012/09/06 12:09,2012/09/06 12:09,1,,-27.962054,153.379764
790,Spar Express Eight Mile Plains,5/218 Padstow Road,Eight Mile Plains,Brisbane South,retailer,1,1,0,0,1,1,1,1,1,1,1,1,0,0,0,0,2012/09/13 15:33,2012/09/13 15:33,1,,-27.574419,153.087227
791,Brisbane Convenience Centre,183 Ann Street,Brisbane,Brisbane Central,retailer,1,0,0,0,0,1,1,1,1,1,1,1,0,0,0,0,2012/09/17 13:10,2012/09/17 13:10,1,,-27.467113,153.025228
792,Brisbane Airport Visitor Information Centre,"Brisbane International Airport, Airport Drive",Airport (Brisbane),Brisbane East,retailer,1,0,0,0,0,1,1,1,1,1,1,1,0,0,0,0,2012/09/17 13:19,2012/11/07 10:27,2,,-27.403272,153.108994
793,Metropolitan South Institute of TAFE - Browns Plains,61 Grand Plaza Drive,Browns Plains,Brisbane South,retailer,1,0,0,0,0,1,1,1,1,1,1,1,0,0,0,0,2012/09/17 13:29,2012/09/17 13:29,1,,-27.664773,153.04178
794,The Bread Basket,132 Leicester Street,Camp Hill,Brisbane East,retailer,1,0,0,0,0,1,1,1,1,1,1,1,0,0,0,0,2012/09/17 13:49,2012/09/17 13:49,1,,-27.497447,153.067783
795,Chevron 7 day Express Food Store,46 Thomas Drive,Surfers Paradise,Gold Coast,retailer,1,0,0,0,0,1,1,1,1,1,1,1,0,0,0,0,2012/09/17 13:54,2012/09/17 13:54,1,,-27.998069,153.419628
796,Lytton Road News,83 Lytton Road,East Brisbane,Brisbane East,retailer,1,0,0,0,0,1,1,1,1,1,1,1,0,0,0,0,2012/09/17 14:07,2012/09/17 14:07,1,,-27.479865,153.046272
797,NewsExtra Everton Park,Shop 2/801 Stafford Road ,Everton Park,Brisbane North,retailer,1,0,0,0,0,1,1,1,1,1,1,1,0,0,0,0,2012/09/17 14:15,2012/09/17 14:16,1,,-27.406636,152.992052
798,Goodna Newsagency,"Shop 19B, 2 Smiths Road",Goodna,Western,retailer,1,0,0,0,0,1,1,1,1,1,1,1,0,0,0,0,2012/09/17 14:21,2012/09/17 14:21,1,,-27.610074,152.897662
799,Noosa Visitor Information Centre,61 Hastings Street,Noosa Heads,Sunshine Coast,retailer,1,0,0,0,0,1,1,1,1,1,1,1,0,0,0,0,2012/09/17 14:58,2012/09/17 14:58,1,,-26.386766,153.091411
800,NewsXpress Redcliffe,20 Anzac Avenue,Redcliffe,Northern,retailer,1,0,0,0,0,1,1,1,1,1,1,1,0,0,0,0,2012/09/17 15:03,2012/09/17 15:03,1,,-27.230745,153.115212
801,Shorncliffe News,52 Pier Avenue,Shorncliffe,Brisbane North,retailer,1,0,0,0,0,1,1,1,1,1,1,1,0,0,0,0,2012/09/17 15:10,2012/09/17 15:10,1,,-27.324331,153.08257
802,Circle News,3184 Surfers Paradise Boulevards,Surfers Paradise,Gold Coast,retailer,1,0,0,0,0,1,1,1,1,1,1,1,0,0,0,0,2012/09/17 15:40,2012/09/17 15:40,1,,-28.001165,153.426998
803,David Low Way News,"Centro North Shore, David Low Way",Pacific Paradise,Sunshine Coast,retailer,1,0,0,0,0,1,1,1,1,1,1,1,0,0,0,0,2012/09/25 10:54,2012/09/25 10:54,1,,-26.61413,153.083234
804,Morningside News and Casket,595 Wynnum Road,Morningside,Brisbane East,retailer,1,0,0,0,0,1,1,1,1,1,1,1,0,0,0,0,2012/11/29 12:21,2012/11/29 12:21,1,,-27.468872,153.071304
805,Warrigal Square News,"Warrigal Square Shopping Centre, 16/261 Warrigal Road",Eight Mile Plains,Brisbane South,retailer,1,1,0,0,1,1,1,1,1,1,1,1,0,0,0,0,2012/12/10 09:48,2012/12/10 09:57,1,,-27.590132,153.084894
806,Oxford Street News,134 Oxford Street,Bulimba,Brisbane South,retailer,1,1,0,0,1,1,1,1,1,1,1,1,0,0,0,0,2013/01/15 12:17,2013/01/15 12:17,1,,-27.451,153.058
807,IGA Express Alexandra Headlands,"Shop 1, 152 Alexandra Parade",Alexandra Headlands,Sunshine Coast,retailer,1,0,0,0,0,1,1,1,1,1,1,1,0,0,0,0,2013/01/31 13:38,2013/01/31 13:38,1,,-26.668315,153.106435
808,Wirreanda News,110 King Street,Buderim,Sunshine Coast,retailer,1,0,0,0,0,1,1,1,1,1,1,1,0,0,0,0,2013/03/27 12:12,2013/03/27 12:12,1,,-26.682702,153.066338
809,Loganholme News and Casket,"Shop 5, 37-59 Bryants Road",Loganholme,Southern,retailer,1,0,0,0,0,1,1,1,1,1,1,1,0,0,0,0,2013/04/08 16:08,2013/07/23 11:49,2,,-27.6635,153.177
810,Macleay Island Post Office,"Shop 2, 36 Southsea Terrace",Macleay Island,Eastern,retailer,1,0,0,0,0,1,1,1,1,1,1,1,0,0,0,0,2013/05/02 08:58,2013/05/02 08:58,1,,-27.629638,153.364813
811,Supanews Garden City Upper Level,"Garden City (Upper level, near food court), Logan Road",Mount Gravatt,Brisbane South,retailer,1,1,1,1,1,1,1,1,1,1,1,1,0,1,0,0,2013/06/18 14:33,2013/06/18 14:33,1,,-27.5641,153.082
812,Bay Island Transit Ticket Office,"Weinam Creek Marina, Banana St",Redland Bay,Eastern,retailer,1,1,0,1,1,1,1,1,1,1,1,1,0,1,0,0,2013/07/05 13:49,2013/07/05 13:49,1,,-27.615168,153.308834
813,7-Eleven Adelaide Street,47 - 59 Adelaide Street,Brisbane (city),Brisbane Central,retailer,1,1,0,0,1,1,1,1,1,1,1,1,0,0,0,0,2013/07/16 13:35,2013/07/16 13:35,1,,-27.46957,153.023727
814,Broadbeach Central IGA,2719 Gold Coast Highway,Broadbeach,Gold Coast,retailer,1,0,0,0,0,1,1,1,1,1,1,1,0,0,0,0,2013/07/19 10:56,2013/07/19 11:12,1,,-28.02804,153.42991
815,Broadbeach Central IGA,2719 Gold Coast Highway,Broadbeach,Gold coast,retailer,1,0,0,0,0,1,1,1,1,1,1,1,0,0,0,0,2013/07/19 10:56,2013/07/19 11:04,2,,-28.02804,153.42991
816,Friendly Grocer Crestmead,5/13 Julie Street,Crestmead,Southern,retailer,1,0,0,0,0,1,1,1,1,1,1,1,0,0,0,0,2013/07/19 11:02,2013/07/19 11:02,1,,-27.696258,153.083098
817,Nextra Hyperdome,"Shop 128 Logan Hyperdome, Cnr Pacific Highway and Bryants Road",Loganholme,Southern,retailer,1,1,1,1,1,1,1,1,1,1,1,1,0,1,0,0,2013/08/01 15:22,2013/08/01 15:22,1,,-27.6603,153.174
